event_id,title,description,category,timezone,geo_coordinates_longitude,geo_coordinates_latitude,geo_address_region,location,country,phq_attendance,rank,local_rank,predicted_event_spend,entities_names,city,category_encoded,city_encoded,combined_features
8flanf9xxv82kvryet,guo pei fashioning imagination,sourced from predicthqcom  an exhibition of guo peis fashion designs this exhibition typically features a collection of her most iconic pieces including her famed gowns worn by celebrities and displayed in prestigious fashion shows visitors can expect to see a variety of guo peis creations that highlight her meticulous attention to detail her use of opulent fabrics and her ability to blend historical and cultural references with contemporary fashion design,expos,Asia/Hong_Kong,114.159495,22.3005044,Kowloon,"114.159495,22.3005044",HK,5000.0,64,62.0,816470.0,,Hong Kong,1,40,guo pei fashioning imagination sourced from predicthqcom  an exhibition of guo peis fashion designs this exhibition typically features a collection of her most iconic pieces including her famed gowns worn by celebrities and displayed in prestigious fashion shows visitors can expect to see a variety of guo peis creations that highlight her meticulous attention to detail her use of opulent fabrics and her ability to blend historical and cultural references with contemporary fashion design expos Hong Kong
3cjqpjxx7t28hw92mn,the cimp autoecosystems expo,sourced from predicthqcom,expos,Asia/Shanghai,113.7696755,22.6996734,Guangdong Sheng,"113.7696755,22.6996734",CN,300000.0,100,100.0,43909054.0,Shenzhen World Exhibition & Convention Center,Guangzhou,1,37,the cimp autoecosystems expo sourced from predicthqcom expos Guangzhou
4eevtq6fzlp3b9yaxt,luzerner fasnacht,sourced from predicthqcom  the lucerne carnivals events lozärner fasnacht are focused on parades the events preserve tradition from the 15th century which is based on the religious customs of the days before lent during the carnival days lucerne residents who are usually selfcontrolled turn the city to a center of happiness and joy,festivals,Europe/Zurich,8.308978,47.0504941,Luzern,"8.308978,47.0504941",CH,314000.0,100,100.0,43929859.0,"Luzern,Luzerner Fasnacht",Lucerne,2,52,luzerner fasnacht sourced from predicthqcom  the lucerne carnivals events lozärner fasnacht are focused on parades the events preserve tradition from the 15th century which is based on the religious customs of the days before lent during the carnival days lucerne residents who are usually selfcontrolled turn the city to a center of happiness and joy festivals Lucerne
4rqxsxznddccttqwgz,soulard mardi gras,sourced from predicthqcom  soulard mardi gras is the nations second largest mardi gras celebration home of the bud light grand parade purina pet parade and much more,festivals,America/Chicago,0.0,0.0,Missouri,"-90.20496154942742,38.60809685133623",US,500000.0,100,100.0,36619298.0,Soulard Mardi Gras,St. Louis,2,85,soulard mardi gras sourced from predicthqcom  soulard mardi gras is the nations second largest mardi gras celebration home of the bud light grand parade purina pet parade and much more festivals St. Louis
7fln85jhn3jb8uw4bm,enlighten festival,sourced from predicthqcom  enjoy awe inspiring art delicious food captivating entertainment film music and much more,festivals,Australia/Sydney,149.1310324,-35.2801846,Australian Capital Territory,"149.1310324,-35.2801846",AU,328087.0,100,100.0,22927184.0,Enlighten Festival Canberra,Canberra,2,22,enlighten festival sourced from predicthqcom  enjoy awe inspiring art delicious food captivating entertainment film music and much more festivals Canberra
8bafxfrvenbmgtmvo7,elecrama,sourced from predicthqcom,expos,Asia/Kolkata,77.500532,28.461767,Uttar Pradesh,"77.500532,28.461767",IN,400000.0,100,100.0,25960793.0,ELECRAMA,Lucknow,1,53,elecrama sourced from predicthqcom expos Lucknow
9vvr5laqhcchanxbma,mardi gras galveston,sourced from predicthqcom  mardi gras galveston is a vibrant and exhilarating festival that brings the spirit of new orleans to texas with colorful parades live music and a lively party atmosphere featuring dazzling costumes and delicious cajun cuisine it is an unforgettable celebration of culture and revelry that will transport you straight into the heart of mardi gras,festivals,America/Chicago,0.0,0.0,Texas,"-94.79113029999999,29.308990350000002",US,350000.0,100,100.0,25735223.0,Mardi Gras! Galveston,Houston,2,41,mardi gras galveston sourced from predicthqcom  mardi gras galveston is a vibrant and exhilarating festival that brings the spirit of new orleans to texas with colorful parades live music and a lively party atmosphere featuring dazzling costumes and delicious cajun cuisine it is an unforgettable celebration of culture and revelry that will transport you straight into the heart of mardi gras festivals Houston
apsqgoez8lytojxzgp,sydney gay and lesbian mardi gras,sourced from predicthqcom  the sydney gay and lesbian mardi gras at one stage temporarily the sydney mardi gras or locally mardi gras is an annual lgbt lesbian gay bisexual and transgender pride parade and festival in sydney australia,festivals,Australia/Sydney,151.2306481,-33.8873042,New South Wales,"151.2306481,-33.8873042",AU,500000.0,100,100.0,41606266.0,"Mardi Gras Parade Route,Sydney Gay and Lesbian Mardi Gras",Sydney,2,86,sydney gay and lesbian mardi gras sourced from predicthqcom  the sydney gay and lesbian mardi gras at one stage temporarily the sydney mardi gras or locally mardi gras is an annual lgbt lesbian gay bisexual and transgender pride parade and festival in sydney australia festivals Sydney
bcknhf2qgkkjzqxb6w,st louis mardi gras grand parade,sourced from predicthqcom  this event is the crown jewel of the soulard mardi gras season and is the biggest parade outside of the big easy it begins at busch stadium and proceeds through the streets of downtown south and soulard to the place where your beer was born anheuserbusch brewery,festivals,America/Chicago,0.0,0.0,Missouri,"-90.20088965621201,38.60820752085361",US,350000.0,100,100.0,27179663.0,"Busch Stadium,St Louis Mardi Gras Grand Parade",St. Louis,2,85,st louis mardi gras grand parade sourced from predicthqcom  this event is the crown jewel of the soulard mardi gras season and is the biggest parade outside of the big easy it begins at busch stadium and proceeds through the streets of downtown south and soulard to the place where your beer was born anheuserbusch brewery festivals St. Louis
cwsdnfy2m3vwnt8d3w,etechnxt,sourced from predicthqcom,expos,Asia/Kolkata,77.50053199999999,28.461767,Uttar Pradesh,"77.50053199999999,28.461767",IN,350000.0,100,100.0,25544680.0,India Expo Centre and Mart,Lucknow,1,53,etechnxt sourced from predicthqcom expos Lucknow
daa7a55z6gu4rggjy2,daytona bike week,sourced from predicthqcom  bike week is a 10day motorcycle rally attendees of this event can enjoy live music street festivals food and craft vendors bike displays concerts a bike parade and more daytona beach bike week attracts bikers from all over the country to show off their bikes,festivals,America/New_York,0.0,0.0,Florida,"-81.01253327022773,29.226113158018517",US,500000.0,100,100.0,37280785.0,Daytona Beach Bike Week,Miami,2,58,daytona bike week sourced from predicthqcom  bike week is a 10day motorcycle rally attendees of this event can enjoy live music street festivals food and craft vendors bike displays concerts a bike parade and more daytona beach bike week attracts bikers from all over the country to show off their bikes festivals Miami
gdujysafpthnnez79f,venice carnival,sourced from predicthqcom  carnival in venice is a oneofakind celebration suspended between past and present with a traditional local allure featuring many eventwithintheevent among these the starting twoday festa veneziana with its typical masked regattas the best masked costume contest the festa delle marie and countless iconic parades each year carnival includes celebrations whose history dates back to the times of the serenissima such as the famous eagle flight or the wellknown flight of the angel to name but a few carnival in venice is the purest example of the perfect meld of tradition culture and entertainment all in one offering a chance of fun for visitors of all ages,festivals,Europe/Rome,12.3152672,45.4414685,Veneto,"12.3152672,45.4414685",IT,300000.0,100,100.0,23054909.0,Venice Carnival,Venice,2,98,venice carnival sourced from predicthqcom  carnival in venice is a oneofakind celebration suspended between past and present with a traditional local allure featuring many eventwithintheevent among these the starting twoday festa veneziana with its typical masked regattas the best masked costume contest the festa delle marie and countless iconic parades each year carnival includes celebrations whose history dates back to the times of the serenissima such as the famous eagle flight or the wellknown flight of the angel to name but a few carnival in venice is the purest example of the perfect meld of tradition culture and entertainment all in one offering a chance of fun for visitors of all ages festivals Venice
gvnztaren4v4bjsr5m,wbca washingtons birthday celebration,sourced from predicthqcom  the washingtons birthday celebration wbca is a monthlong event held each february in laredo the seat of webb county in south texas that celebrates the birthday of george washington,festivals,America/Chicago,0.0,0.0,Texas,"-99.50338774856236,27.519536180794134",US,400000.0,100,100.0,23983608.0,WBCA Washington's Birthday Celebration,Houston,2,41,wbca washingtons birthday celebration sourced from predicthqcom  the washingtons birthday celebration wbca is a monthlong event held each february in laredo the seat of webb county in south texas that celebrates the birthday of george washington festivals Houston
7zgpxmypth5pveeewe,arizona renaissance festival,sourced from predicthqcom  escape  the arizona renaissance festival where pleasure and celebration are the only orders of the day as decreed by the king,festivals,America/Phoenix,0.0,0.0,Arizona,"-111.42746316346033,33.32184334860559",US,275000.0,99,100.0,20620515.0,Arizona Renaissance Festival,Phoenix,2,72,arizona renaissance festival sourced from predicthqcom  escape  the arizona renaissance festival where pleasure and celebration are the only orders of the day as decreed by the king festivals Phoenix
fapmv9yvszhq4sbdaz,seoul living design fair,sourced from predicthqcom,expos,Asia/Seoul,127.059151,37.5116828,Seoul,"127.059151,37.5116828",KR,286300.0,99,100.0,58336840.0,"COEX Convention Center,Seoul Living Design Fair",Seoul,1,82,seoul living design fair sourced from predicthqcom expos Seoul
4luipfybr4fd4zfywc,riverside county fair and national date festival,sourced from predicthqcom  the riverside county fairnational date festival is an event that celebrates the rich heritage of agriculture and community attendees can enjoy thrilling carnival rides live entertainment mouthwatering food and a vibrant marketplace making it a mustvisit festival for all ages,festivals,America/Los_Angeles,0.0,0.0,California,"-116.22295855768247,33.71124984456111",US,250000.0,98,100.0,18284188.0,Riverside County Fair and National Date Festival,Los Angeles,2,50,riverside county fair and national date festival sourced from predicthqcom  the riverside county fairnational date festival is an event that celebrates the rich heritage of agriculture and community attendees can enjoy thrilling carnival rides live entertainment mouthwatering food and a vibrant marketplace making it a mustvisit festival for all ages festivals Los Angeles
8gocb63zmjcwehh5k6,sydney mardi gras parade,sourced from predicthqcom  the parade will be led by the beloved dykes on bikes first nations and 78er floats,festivals,Australia/Sydney,0.0,0.0,New South Wales,"151.2164085174,-33.8818976426",AU,265000.0,98,100.0,22051321.0,Sydney Gay and Lesbian Mardi Gras,Sydney,2,86,sydney mardi gras parade sourced from predicthqcom  the parade will be led by the beloved dykes on bikes first nations and 78er floats festivals Sydney
ddu99gaekcfz4za6rb,pet fair beijing 2025   beijing international pet supplies exhibition,sourced from predicthqcom,expos,Asia/Shanghai,116.443511,39.962182,Bei Jing Shi,"116.443511,39.962182",CN,238926.0,98,100.0,41482101.0,China International Exhibition Center,Beijing,1,9,pet fair beijing 2025   beijing international pet supplies exhibition sourced from predicthqcom expos Beijing
dnpfqkmwehfuoyijao,phs philadelphia flower show,sourced from predicthqcom  the phs philadelphia flower show flower power will pay tribute to the enormous impact of flowers in our lives,expos,America/New_York,-75.16001,39.95532,Pennsylvania,"-75.16001,39.95532",US,250000.0,98,100.0,55342253.0,Philadelphia Flower Show,Philadelphia,1,71,phs philadelphia flower show sourced from predicthqcom  the phs philadelphia flower show flower power will pay tribute to the enormous impact of flowers in our lives expos Philadelphia
ubantuhuf9bsm6dthg,sitges carnival,sourced from predicthqcom  the sitges carnival carnaval de sitges is one of the wildest most vibrant and inclusive carnivals in spain held annually in the seaside town of sitges just south of barcelona its famous for its colorful parades outrageous costumes and openly lgbtq friendly atmosphere,festivals,Europe/Madrid,1.805886,41.2371851,Catalunya,"1.805886,41.2371851",ES,250000.0,98,100.0,14608070.0,Sitges Carnival,Barcelona,2,8,sitges carnival sourced from predicthqcom  the sitges carnival carnaval de sitges is one of the wildest most vibrant and inclusive carnivals in spain held annually in the seaside town of sitges just south of barcelona its famous for its colorful parades outrageous costumes and openly lgbtq friendly atmosphere festivals Barcelona
7otl3f9tfw7vc2gpal,worlds championship barbque contest,sourced from predicthqcom  more than 250 barbecue teams compete at the houston livestock show and rodeo  worlds championship barbque contest over the course of three days teams from across texas and the world competed for championship titles in the following categories brisket ribs chicken go texan dutch oven dessert and the open contest,festivals,America/Chicago,0.0,0.0,Texas,"-95.40802237079029,29.6843233071777",US,234456.0,97,100.0,19422585.0,"NRG Park,World’s Championship Bar-B-Que Contest",Houston,2,41,worlds championship barbque contest sourced from predicthqcom  more than 250 barbecue teams compete at the houston livestock show and rodeo  worlds championship barbque contest over the course of three days teams from across texas and the world competed for championship titles in the following categories brisket ribs chicken go texan dutch oven dessert and the open contest festivals Houston
8zdpgpktlcevvmzd84,thailand motorcycle grand prix,sourced from predicthqcom  the thailand motorcycle grand prix is a thrilling event that brings the excitement of motogp racing to the chang international circuit in buriram as part of the international motogp calendar it attracts top riders from around the world delivering highspeed action and intense competition fans from across the globe gather to experience the adrenaline along with the vibrant local culture and enthusiastic atmosphere that make this event a standout in the motogp series,sports,Asia/Bangkok,103.0849254,14.9579714,Chang Wat Buri Ram,"103.0849254,14.9579714",TH,226655.0,97,100.0,47405833.0,"Chang International Circuit,Thailand Motorcycle Grand Prix",Buriram,3,20,thailand motorcycle grand prix sourced from predicthqcom  the thailand motorcycle grand prix is a thrilling event that brings the excitement of motogp racing to the chang international circuit in buriram as part of the international motogp calendar it attracts top riders from around the world delivering highspeed action and intense competition fans from across the globe gather to experience the adrenaline along with the vibrant local culture and enthusiastic atmosphere that make this event a standout in the motogp series sports Buriram
e76lm6tpeeurhzepx7,perth festival,"sourced from predicthqcom  perth festival sometimes referred to as the festival of perth is australias longestrunning cultural festival held annually in western australia the program features contemporary and classical music dance theatre performance literature and ideas visual arts largescale public works 

multiple locations in perth",festivals,Australia/Perth,115.861309,-31.9523123,Western Australia,"115.861309,-31.9523123",AU,214800.0,97,100.0,15233396.0,Perth Festival,Perth,2,70,"perth festival sourced from predicthqcom  perth festival sometimes referred to as the festival of perth is australias longestrunning cultural festival held annually in western australia the program features contemporary and classical music dance theatre performance literature and ideas visual arts largescale public works 

multiple locations in perth festivals Perth"
7yx6tqwtha7ifpupx5,cognizant classic in the palm beaches,sourced from predicthqcom  formerly known as the honda classic cognizant classic is a professional golf tournament on the pga tour in south florida it was founded in 1972 as jackie gleasons inverrary classic and prior to a schedule change in 2021 was frequently the first of the florida events in late winter following the west coast swing,sports,America/New_York,-80.1422107,26.8284058,Florida,"-80.1422107,26.8284058",US,200000.0,96,100.0,18865689.0,"PGA National Resort and Spa,Cognizant Classic",Miami,3,58,cognizant classic in the palm beaches sourced from predicthqcom  formerly known as the honda classic cognizant classic is a professional golf tournament on the pga tour in south florida it was founded in 1972 as jackie gleasons inverrary classic and prior to a schedule change in 2021 was frequently the first of the florida events in late winter following the west coast swing sports Miami
9gdncqyjvq7q9rwwzp,central florida fair,sourced from predicthqcom,festivals,America/New_York,0.0,0.0,Florida,"-81.43778982240741,28.556084000053243",US,200000.0,96,100.0,15831935.0,"Central Florida Fairgrounds,Central Florida Fair",Miami,2,58,central florida fair sourced from predicthqcom festivals Miami
byyrhvrujnkuvaqgpk,apppexpo,sourced from predicthqcom  apppexpo shanghai international advertising  sign technology  equipment exhibition has explored new development of upcoming ad sign future apppexpo served as an effective platform allowing china  see the world and provide the whole world with great opportunity to understand china,expos,Asia/Shanghai,121.30266,31.18997,Shang Hai Shi,"121.30266,31.18997",CN,200000.0,96,100.0,24645658.0,"National Convention & Exhibition Center,APPPEXPO Shanghai International Printing Exhibition",Shanghai,1,84,apppexpo sourced from predicthqcom  apppexpo shanghai international advertising  sign technology  equipment exhibition has explored new development of upcoming ad sign future apppexpo served as an effective platform allowing china  see the world and provide the whole world with great opportunity to understand china expos Shanghai
do2amduottd3don6jw,mobile mardi gras day  fat tuesday,sourced from predicthqcom  mobile mardi gras day  fat tuesday is the grand finale of mardi gras season in mobile alabama and its a major cultural celebration rooted in centuriesold traditions it happens on fat tuesday mardi gras in french  the day before ash wednesday which marks the beginning of lent in the christian calendar,festivals,America/Chicago,0.0,0.0,Alabama,"-88.04511921840938,30.68835451121511",US,200000.0,96,100.0,14304408.0,Mobile Mardi Gras Day - Fat Tuesday,Birmingham,2,14,mobile mardi gras day  fat tuesday sourced from predicthqcom  mobile mardi gras day  fat tuesday is the grand finale of mardi gras season in mobile alabama and its a major cultural celebration rooted in centuriesold traditions it happens on fat tuesday mardi gras in french  the day before ash wednesday which marks the beginning of lent in the christian calendar festivals Birmingham
dr5uktv6gt9dsk7csc,huishoudbeurs,sourced from predicthqcom,expos,Europe/Amsterdam,4.8886211,52.3411868,Noord-Holland,"4.8886211,52.3411868",NL,200000.0,96,100.0,40611855.0,"Amsterdam RAI,Huishoudbeurs",Amsterdam,1,4,huishoudbeurs sourced from predicthqcom expos Amsterdam
fo3wrzp2puta9fxb7u,cibe 2025  china beijing international beauty expo,sourced from predicthqcom  china international beauty expo cibe is a premier global event that brings together topnotch beauty brands professionals and enthusiasts showcasing the latest trends products and technologies in the beauty industry with a wide range of exhibitors and exciting activities it offers a unique platform for networking business opportunities and discovering cuttingedge beauty innovations,expos,Asia/Shanghai,116.4027353,39.9892217,Beijing Shi,"116.4027353,39.9892217",CN,200000.0,96,95.0,35996351.0,"Beijing International Convention Center,China International Beauty Expo - Shanghai",Beijing,1,9,cibe 2025  china beijing international beauty expo sourced from predicthqcom  china international beauty expo cibe is a premier global event that brings together topnotch beauty brands professionals and enthusiasts showcasing the latest trends products and technologies in the beauty industry with a wide range of exhibitors and exciting activities it offers a unique platform for networking business opportunities and discovering cuttingedge beauty innovations expos Beijing
39qttcs58hqjuesycp,design  construction week,sourced from predicthqcom  design  construction week dcw features the colocation of the nahb international builders show ibs and the national kitchen  bath associations kitchen  bath industry show kbis,expos,America/Los_Angeles,-115.15183100000002,36.1307069,Nevada,"-115.15183100000002,36.1307069",US,100000.0,90,100.0,19706608.0,"Las Vegas Convention Center,Design & Construction Week",Las Vegas,1,46,design  construction week sourced from predicthqcom  design  construction week dcw features the colocation of the nahb international builders show ibs and the national kitchen  bath associations kitchen  bath industry show kbis expos Las Vegas
3obaiw3hijghtyp3hp,montanas brier,sourced from predicthqcom  canadas national mens curling championship,sports,America/Vancouver,-119.4953028,49.8927619,British Columbia,"-119.4953028,49.8927619",CA,100000.0,90,100.0,8739675.0,"Montanas Brier,Prospera Place",Vancouver,3,97,montanas brier sourced from predicthqcom  canadas national mens curling championship sports Vancouver
47lt8563uywehi2qyr,asiamold select,sourced from predicthqcom  asiamold remains one of south chinas most renowned exhibitions for the mould and 3d printing sectors supporting the chinese governments latest green and production initiatives for the manufacturing industry the fair is committed to staying ahead of the trends by highlighting the latest technologies and solutions,expos,Asia/Shanghai,113.357894,23.104038,Guang Dong Sheng,"113.357894,23.104038",CN,98800.0,90,99.0,10287736.0,Asiamold,Guangzhou,1,37,asiamold select sourced from predicthqcom  asiamold remains one of south chinas most renowned exhibitions for the mould and 3d printing sectors supporting the chinese governments latest green and production initiatives for the manufacturing industry the fair is committed to staying ahead of the trends by highlighting the latest technologies and solutions expos Guangzhou
5gg2xqjde2lkuzjhln,moto2 2025  grand prix of thailand 2025  practice 3,sourced from predicthqcom,sports,Asia/Bangkok,103.0849254,14.9579714,Chang Wat Buri Ram,"103.0849254,14.9579714",TH,100000.0,90,100.0,3640585.0,"Darryn Binder,Joe Roberts,Albert Arenas,Marcos Ramirez,Alex Escrig,Jorge Navarro,Ayumu Sasaki,Celestino Vietti,Tony Arbolino,Ivan Ortola,Izan Guevara,Diogo Moreira,Alonso Lopez,Jake Dixon,Mario Suryo Aji,Aron Canet,Manuel Gonzalez,Zonta van Den Goorbergh,Barry Baltus,Yuki Kunii,Filip Salac,Adrian Huertas,Senna Agius,David Alonso,Collin Veijer,Deniz Oncu,Daniel Holgado,Oscar Gutierrez,Chang International Circuit",Buriram,3,20,moto2 2025  grand prix of thailand 2025  practice 3 sourced from predicthqcom sports Buriram
5w8t6dg2rusay9ktdk,ak safety equipment industrial valves,sourced from predicthqcom,expos,Europe/Berlin,8.626558,50.082582,,"8.626558,50.082582",DE,100000.0,90,100.0,18056575.0,VDMA,Unknown,1,95,ak safety equipment industrial valves sourced from predicthqcom expos Unknown
5xixq9efrauxmvjuex,fruhjahrs ausstellung,sourced from predicthqcom,expos,Europe/Berlin,9.4938739,51.2882797,Hessen,"9.4938739,51.2882797",DE,100000.0,90,100.0,15490177.0,"Messe Kassel GmbH,Frühjahrs-Ausstellung - Consumer Goods Exhibition",Frankfurt,1,35,fruhjahrs ausstellung sourced from predicthqcom expos Frankfurt
653zxrsmqsqprdfqsy,motogp 2025  grand prix of thailand  sprint,sourced from predicthqcom,sports,Asia/Bangkok,103.0849254,14.9579714,Chang Wat Buri Ram,"103.0849254,14.9579714",TH,100000.0,90,100.0,3640585.0,"Ai Ogura,Francesco Bagnaia,Pedro Acosta,Marc Marquez,Fabio Quartararo,Luca Marini,Brad Binder,Maverick Vinales,Marco Bezzecchi,Jack Miller,Enea Bastianini,Miguel Oliveira,Somkiat Chantra,Fermin Aldeguer,Franco Morbidelli,Lorenzo Savadori,Joan Mir,Johann Zarco,Alex Marquez,Alex Rins,Fabio Di Giannantonio,Raul Fernandez,Chang International Circuit",Buriram,3,20,motogp 2025  grand prix of thailand  sprint sourced from predicthqcom sports Buriram
6l4ejvpfaeefnuhyvn,busan architectural interior exhibition,sourced from predicthqcom,expos,Asia/Seoul,129.1360411,35.1689766,Busan,"129.1360411,35.1689766",KR,100000.0,90,93.0,10060192.0,Busan Exhibition and Convention Center,Busan,1,21,busan architectural interior exhibition sourced from predicthqcom expos Busan
6vcpiu7rzwp39hqnki,viareggio carnevale  4th carnival parade,sourced from predicthqcom  the carnival of viareggio carnevale di viareggio is a carnival event annually held in the tuscan city of viareggio in italy one of the best known in italy the carnival in viareggio has its origins at the end of the 19th century the parades draw thousands of visitors of all ages who come to see both the spectacular floats and parade as well as participate in the festive air that can be breathed in the town on the days of the masquerade processions,festivals,Europe/Rome,10.2442294,43.8655924,Toscana,"10.2442294,43.8655924",IT,100000.0,90,100.0,6476947.0,Viareggio Carnevale,Florence,2,34,viareggio carnevale  4th carnival parade sourced from predicthqcom  the carnival of viareggio carnevale di viareggio is a carnival event annually held in the tuscan city of viareggio in italy one of the best known in italy the carnival in viareggio has its origins at the end of the 19th century the parades draw thousands of visitors of all ages who come to see both the spectacular floats and parade as well as participate in the festive air that can be breathed in the town on the days of the masquerade processions festivals Florence
7q86bouh8wy5vjwmpq,california midwinter fair and fiesta,sourced from predicthqcom  the california midwinter fair and fiesta often referred to as the imperial county fair is the largest annual event in imperial county california held in late february or early march this fair has been a tradition since 1901 showcasing the regions agricultural roots and celebrating the local culture and community the fair blends modern attractions with historical significance creating a fun and educational experience for all ages,festivals,America/Los_Angeles,0.0,0.0,California,"-115.56693297051237,32.83698332284812",US,98598.0,90,100.0,8122594.0,California Midwinter Fair Fiesta,Los Angeles,2,50,california midwinter fair and fiesta sourced from predicthqcom  the california midwinter fair and fiesta often referred to as the imperial county fair is the largest annual event in imperial county california held in late february or early march this fair has been a tradition since 1901 showcasing the regions agricultural roots and celebrating the local culture and community the fair blends modern attractions with historical significance creating a fun and educational experience for all ages festivals Los Angeles
7kedk3ceuo5snztmzv,moto3 2025  grand prix of thailand 2025  qualifying,sourced from predicthqcom,sports,Asia/Bangkok,103.0849254,14.9579714,Chang Wat Buri Ram,"103.0849254,14.9579714",TH,100000.0,90,100.0,3640585.0,"Scott Ogden,Riccardo Rossi,Adrian Fernandez,Adrian Cruces,Cormac Buchanan,Guido Pini,Ruche Moodley,Eddie O Shea,Jakob Rosenthaler,Angel Piqueras,David Munoz,Luca Lunetta,Matteo Bertelle,Joel Kelso,Alvaro Carpe,David Almansa,Stefano Nepa,Marcos Uriarte,Nicola Fabio Carraro,Valentin Perrone,Tatchakorn Buasri,Jose Antonio Rueda,Ryusei Yamanaka,Joel Esteban,Taiyo Furusato,Dennis Foggia,Chang International Circuit",Buriram,3,20,moto3 2025  grand prix of thailand 2025  qualifying sourced from predicthqcom sports Buriram
9thqjrokwjhqmavmhz,camarote essepê,sourced from predicthqcom,festivals,America/Sao_Paulo,-46.64077450000001,-23.5152704,São Paulo,"-46.64077450000001,-23.5152704",BR,103200.0,90,96.0,3795189.0,"Pixote,Sorriso Maroto,Péricles,Turma do Pagode,Thiaguinho,Belo,Jonas Medeiros,Jeito Moleque,Cultural Walkway",São Paulo,2,87,camarote essepê sourced from predicthqcom festivals São Paulo
bvgjizk3t6nbea3n82,carnaval de málaga,sourced from predicthqcom  carnaval de málaga or fiesta del invierno cálido is a popular festival that precedes the time of lent the event is unique in málaga for its multicultural colourful and spontaneous character,festivals,Europe/Madrid,-4.422017,36.7210325,Andalucía,"-4.422017,36.7210325",ES,100000.0,90,100.0,5671209.0,Carnaval de Málaga,Madrid,2,54,carnaval de málaga sourced from predicthqcom  carnaval de málaga or fiesta del invierno cálido is a popular festival that precedes the time of lent the event is unique in málaga for its multicultural colourful and spontaneous character festivals Madrid
bonkmdphupqb9mrtbf,moto2 2025  grand prix of thailand 2025  race,sourced from predicthqcom,sports,Asia/Bangkok,103.0849254,14.9579714,Chang Wat Buri Ram,"103.0849254,14.9579714",TH,100000.0,90,100.0,3640585.0,"Darryn Binder,Tony Arbolino,Joe Roberts,Albert Arenas,Marcos Ramirez,Alex Escrig,Jorge Navarro,Ayumu Sasaki,Celestino Vietti,Ivan Ortola,Izan Guevara,Alonso Lopez,Jake Dixon,Yuki Kunii,Filip Salac,Aron Canet,Zonta van Den Goorbergh,Barry Baltus,Manuel Gonzalez,Diogo Moreira,Mario Suryo Aji,Adrian Huertas,Deniz Oncu,Daniel Holgado,David Alonso,Collin Veijer,Senna Agius,Oscar Gutierrez,Chang International Circuit",Buriram,3,20,moto2 2025  grand prix of thailand 2025  race sourced from predicthqcom sports Buriram
cr7pruuvsv8jayodnv,viareggio carnevale  5th carnival parade,sourced from predicthqcom  the carnival of viareggio carnevale di viareggio is a carnival event annually held in the tuscan city of viareggio in italy one of the best known in italy the carnival in viareggio has its origins at the end of the 19th century the parades draw thousands of visitors of all ages who come to see both the spectacular floats and parade as well as participate in the festive air that can be breathed in the town on the days of the masquerade processions,festivals,Europe/Rome,10.2442294,43.8655924,Toscana,"10.2442294,43.8655924",IT,100000.0,90,100.0,6476947.0,Viareggio Carnevale,Florence,2,34,viareggio carnevale  5th carnival parade sourced from predicthqcom  the carnival of viareggio carnevale di viareggio is a carnival event annually held in the tuscan city of viareggio in italy one of the best known in italy the carnival in viareggio has its origins at the end of the 19th century the parades draw thousands of visitors of all ages who come to see both the spectacular floats and parade as well as participate in the festive air that can be breathed in the town on the days of the masquerade processions festivals Florence
cqfqvknt9cbi6vsvk3,cádiz carnival,sourced from predicthqcom  the cadiz carnival is known throughout the world as a huge street party eleven days of nonstop fun originality and more than anything else mass participation the whole city is transformed the streets are filled with people intent on having a good time and making sure everyone else has a good time singing and enjoying themselves,festivals,Europe/Madrid,-6.2804565,36.5210142,Andalucía,"-6.2804565,36.5210142",ES,100000.0,90,97.0,4659111.0,Carnaval of Cadiz,Madrid,2,54,cádiz carnival sourced from predicthqcom  the cadiz carnival is known throughout the world as a huge street party eleven days of nonstop fun originality and more than anything else mass participation the whole city is transformed the streets are filled with people intent on having a good time and making sure everyone else has a good time singing and enjoying themselves festivals Madrid
d7p8mu4xp6mrzupdg7,hawthorn hawks vs western bulldogs,sourced from predicthqcom,sports,Australia/Melbourne,144.9834493,-37.8199669,Victoria,"144.9834493,-37.8199669",AU,100024.0,90,100.0,7822197.0,"Hawthorn Hawks,Western Bulldogs,Melbourne Cricket Ground",Melbourne,3,56,hawthorn hawks vs western bulldogs sourced from predicthqcom sports Melbourne
dfb7ma7uwufqeuy4jy,mobile world congress,sourced from predicthqcom  the gsma mobile world congress is the place where mobile leaders to gather collaborate and conduct businessthe annual event provides the planets best venue for mobile industry networking new business opportunities and dealmaking mobile world congress mwc includes a worldclass conference featuring visionary keynotes and thoughtprovoking panel discussions an exhibition with more than 2000 companies displaying the cuttingedge products and technologies that define the future of mobile the worlds best opportunity for mobile industry networking and the annual global mobile awards ceremony which recognises the most innovative mobile solutions and initiatives from around the world,expos,Europe/Madrid,2.1278252,41.3546937,Catalunya,"2.1278252,41.3546937",ES,101000.0,90,100.0,14231417.0,"Fira Barcelona Gran Via,Mobile World Congress",Barcelona,1,8,mobile world congress sourced from predicthqcom  the gsma mobile world congress is the place where mobile leaders to gather collaborate and conduct businessthe annual event provides the planets best venue for mobile industry networking new business opportunities and dealmaking mobile world congress mwc includes a worldclass conference featuring visionary keynotes and thoughtprovoking panel discussions an exhibition with more than 2000 companies displaying the cuttingedge products and technologies that define the future of mobile the worlds best opportunity for mobile industry networking and the annual global mobile awards ceremony which recognises the most innovative mobile solutions and initiatives from around the world expos Barcelona
emetbwoazjrcq7kukj,krewe of proteus,"sourced from predicthqcom  founded in 1882 the krewe of proteus is the secondoldest krewe in carnival history their floats still use the original chassis from the 1880s
the organization is named after proteus the prophetic old man of the sea in greek mythology the shepherd of the seas flocks",festivals,America/Chicago,0.0,0.0,Louisiana,"-90.08439009364928,29.934763435191645",US,100000.0,90,100.0,8170330.0,Krewe of Proteus,New Orleans,2,64,"krewe of proteus sourced from predicthqcom  founded in 1882 the krewe of proteus is the secondoldest krewe in carnival history their floats still use the original chassis from the 1880s
the organization is named after proteus the prophetic old man of the sea in greek mythology the shepherd of the seas flocks festivals New Orleans"
ffwu62ywpubzwqlufx,motogp 2025  grand prix of thailand  race,sourced from predicthqcom,sports,Asia/Bangkok,103.0849254,14.9579714,Chang Wat Buri Ram,"103.0849254,14.9579714",TH,100000.0,90,100.0,3640585.0,"Ai Ogura,Francesco Bagnaia,Pedro Acosta,Marc Marquez,Fabio Quartararo,Luca Marini,Brad Binder,Maverick Vinales,Marco Bezzecchi,Jack Miller,Miguel Oliveira,Enea Bastianini,Somkiat Chantra,Fermin Aldeguer,Franco Morbidelli,Lorenzo Savadori,Joan Mir,Alex Marquez,Alex Rins,Johann Zarco,Fabio Di Giannantonio,Raul Fernandez,Chang International Circuit",Buriram,3,20,motogp 2025  grand prix of thailand  race sourced from predicthqcom sports Buriram
gw4d7cfwkgqoxa6xzy,motorrader dortmund 2025,sourced from predicthqcom  motorräder dortmund is a premier annual motorcycle fair that attracts around 100000 visitors the event showcases the latest in motorcycle technology accessories and gear from various manufacturers while also featuring thrilling demonstrations and entertainment making it a key gathering for motorcycle enthusiasts with a vibrant atmosphere and a diverse array of exhibits it serves as an essential platform for industry professionals and fans alike to connect and celebrate their passion for motorcycling,expos,Europe/Berlin,7.4544003,51.4949758,Nordrhein-Westfalen,"7.4544003,51.4949758",DE,103000.0,90,100.0,14635388.0,"Messe Dortmund GmbH,Motorräder Dortmund",Berlin,1,12,motorrader dortmund 2025 sourced from predicthqcom  motorräder dortmund is a premier annual motorcycle fair that attracts around 100000 visitors the event showcases the latest in motorcycle technology accessories and gear from various manufacturers while also featuring thrilling demonstrations and entertainment making it a key gathering for motorcycle enthusiasts with a vibrant atmosphere and a diverse array of exhibits it serves as an essential platform for industry professionals and fans alike to connect and celebrate their passion for motorcycling expos Berlin
3krqc2mh9r4d6diewm,hotelex shanghai 2025  international hospitality equipment  foodservice expo,sourced from predicthqcom,expos,Asia/Shanghai,121.306102,31.190706,Shang Hai Shi,"121.306102,31.190706",CN,420000.0,100,100.0,52664056.0,,Shanghai,1,84,hotelex shanghai 2025  international hospitality equipment  foodservice expo sourced from predicthqcom expos Shanghai
3lj2vqx8tdvmd22ryy,indianapolis 500,sourced from predicthqcom  the indianapolis 500 is an automobile race held annually at indianapolis motor speedway in speedway indiana an enclave suburb of indianapolis indiana the event is held over memorial day originally decoration day weekend which is typically the last weekend in may,sports,America/Indiana/Indianapolis,-86.23530060000002,39.7953542,Indiana,"-86.23530060000002,39.7953542",US,350000.0,100,100.0,147597985.0,"Indianapolis Motor Speedway,Indianapolis 500",Indianapolis,3,43,indianapolis 500 sourced from predicthqcom  the indianapolis 500 is an automobile race held annually at indianapolis motor speedway in speedway indiana an enclave suburb of indianapolis indiana the event is held over memorial day originally decoration day weekend which is typically the last weekend in may sports Indianapolis
3cw2xyjeflhsaq8reg,ciff phase i  home furniture,sourced from predicthqcom,expos,Asia/Shanghai,113.357894,23.104038,Guang Dong Sheng,"113.357894,23.104038",CN,363449.0,100,100.0,36981525.0,,Guangzhou,1,37,ciff phase i  home furniture sourced from predicthqcom expos Guangzhou
3gwbpxdr8knijo5lnz,nycxdesign festival,sourced from predicthqcom  nycxdesign also known as new york city by design is an annual design festival in new york city which takes place every may the festival is made up of independently hosted exhibitions open studios panel discussions and other inperson and virtual events that take place in the five boroughs of new york city,festivals,America/New_York,-74.0059728,40.7127753,New York,"-74.0059728,40.7127753",US,300000.0,100,100.0,21819202.0,NYCxDESIGN,New York,2,65,nycxdesign festival sourced from predicthqcom  nycxdesign also known as new york city by design is an annual design festival in new york city which takes place every may the festival is made up of independently hosted exhibitions open studios panel discussions and other inperson and virtual events that take place in the five boroughs of new york city festivals New York
4evbma4g4gcbkjrfkh,new orleans jazz  heritage festival,sourced from predicthqcom  the new orleans jazz  heritage festival commonly called jazz fest or jazzfest is an annual celebration of the music and culture of new orleans and louisiana it has attracted thousands of visitors to new orleans each year,festivals,America/Chicago,0.0,0.0,Louisiana,"-90.07972646666667,29.982200966666664",US,450000.0,100,100.0,39720057.0,New Orleans Jazz & Heritage Festival,New Orleans,2,64,new orleans jazz  heritage festival sourced from predicthqcom  the new orleans jazz  heritage festival commonly called jazz fest or jazzfest is an annual celebration of the music and culture of new orleans and louisiana it has attracted thousands of visitors to new orleans each year festivals New Orleans
4upgrr6jypalg2kwwd,tulsa international mayfest,sourced from predicthqcom  tulsas mayfest is renowned nationwide for presenting the best in arts and entertainment this event has something for everyone to enjoy including delicious food,festivals,America/Chicago,0.0,0.0,Oklahoma,"-95.99370547326076,36.15827997151628",US,350000.0,100,100.0,27291602.0,Tulsa International Mayfest,Oklahoma City,2,66,tulsa international mayfest sourced from predicthqcom  tulsas mayfest is renowned nationwide for presenting the best in arts and entertainment this event has something for everyone to enjoy including delicious food festivals Oklahoma City
4ilder8vrg2txm6f5f,international dixieland festival,sourced from predicthqcom  an annual music festival called the internationale dixieland festival dresden takes place in dresden germany one of europes oldest and most prominent jazz festivals it draws fans and musicians from around the globe,festivals,Europe/Berlin,13.7372621,51.0504088,Sachsen,"13.7372621,51.0504088",DE,500000.0,100,100.0,33339706.0,International Dixieland Festival,Dresden,2,31,international dixieland festival sourced from predicthqcom  an annual music festival called the internationale dixieland festival dresden takes place in dresden germany one of europes oldest and most prominent jazz festivals it draws fans and musicians from around the globe festivals Dresden
4iabm8uftuijapjx7s,carnaval san francisco,sourced from predicthqcom  watch a brilliant procession of contingents most of which will feature beautifully adorned floats depicting rich multicultural themes and featuring performers who engage and entertain the crowds experience global cuisine international music dance arts  crafts and other fun activities and entertainment on every street corner for the entire family to enjoy,festivals,America/Los_Angeles,0.0,0.0,California,"-122.41734153301684,37.7634999122597",US,400000.0,100,100.0,40066450.0,Carnaval San Francisco,Los Angeles,2,50,carnaval san francisco sourced from predicthqcom  watch a brilliant procession of contingents most of which will feature beautifully adorned floats depicting rich multicultural themes and featuring performers who engage and entertain the crowds experience global cuisine international music dance arts  crafts and other fun activities and entertainment on every street corner for the entire family to enjoy festivals Los Angeles
4kh7ptyjncgywbh7pj,run rome the marathon,sourced from predicthqcom  the rome marathon is an annual marathon competition hosted by the city of rome italy,sports,Europe/Rome,0.0,0.0,Lazio,"12.474512178873903,41.905081285639355",IT,500000.0,100,100.0,41631754.0,Rome Marathon,Rome,3,79,run rome the marathon sourced from predicthqcom  the rome marathon is an annual marathon competition hosted by the city of rome italy sports Rome
4pyvbgxjcrfdm7rh7o,bakery china,sourced from predicthqcom,expos,Asia/Shanghai,121.306102,31.190706,Shang Hai Shi,"121.306102,31.190706",CN,385861.0,100,100.0,41186961.0,,Shanghai,1,84,bakery china sourced from predicthqcom expos Shanghai
4ryzrg6ujtfzf5dhte,lima,sourced from predicthqcom  the only exhibition of its kind in the world the langkawi international maritime  aerospace exhibition or lima for short is a platform for defence commercial and industrial uses the biennial exhibition for the maritime and aerospace sectors serving the asia pacific region stands out as a unique trade showcase and specialised event unparalleled by any other worldwide,expos,Asia/Kuala_Lumpur,99.7287335,6.338717600000001,Kedah,"99.7287335,6.338717600000001",MY,323000.0,100,100.0,26444004.0,"Mahsuri International Exhibition Centre,LIMA - The Langkawi International Maritime & Aerospace Exhibition",Alor Setar,1,3,lima sourced from predicthqcom  the only exhibition of its kind in the world the langkawi international maritime  aerospace exhibition or lima for short is a platform for defence commercial and industrial uses the biennial exhibition for the maritime and aerospace sectors serving the asia pacific region stands out as a unique trade showcase and specialised event unparalleled by any other worldwide expos Alor Setar
5gikq8xp2fvbksaktt,bea,sourced from predicthqcom  ausstellung für gewerbe landwirtschaft handel und industrie,expos,Europe/Zurich,7.4679721,46.9598624,Bern,"7.4679721,46.9598624",CH,330000.0,100,100.0,76894859.0,BEA,Bern,1,13,bea sourced from predicthqcom  ausstellung für gewerbe landwirtschaft handel und industrie expos Bern
5vdr9aneh5mpknzx3f,pecan street festival,sourced from predicthqcom,expos,America/Chicago,-97.7381589,30.2667554,Texas,"-97.7381589,30.2667554",US,400000.0,100,100.0,100446068.0,"pecan street festival,Pecan Street Festival",Houston,1,41,pecan street festival sourced from predicthqcom expos Houston
5vkd4qegjrbsxg4ygk,la ceiba carnival,sourced from predicthqcom  every may our little town of la ceiba honduras hosts gran carnaval internacional de la ceiba or carnival for short the festival which honors saint isidore the laborer the patron saint of la ceiba is the second biggest carnival in the world,festivals,America/Tegucigalpa,-86.7919009,15.770288,Departamento de Atlántida,"-86.7919009,15.770288",HN,500000.0,100,100.0,20555690.0,La Ceiba Carnival,Tegucigalpa,2,90,la ceiba carnival sourced from predicthqcom  every may our little town of la ceiba honduras hosts gran carnaval internacional de la ceiba or carnival for short the festival which honors saint isidore the laborer the patron saint of la ceiba is the second biggest carnival in the world festivals Tegucigalpa
5vdyvh5ruoguuulmjq,rochester lilac festival,sourced from predicthqcom,festivals,America/New_York,0.0,0.0,New York,"-77.60204088665107,43.132042848242314",US,500000.0,100,100.0,36831957.0,,New York,2,65,rochester lilac festival sourced from predicthqcom festivals New York
6aec8pgeqvxprlkapc,kaziukas fair,sourced from predicthqcom  every year in the first days of march the streets of the old town of vilnius overwhelm the lush kaziukas weekend this is the largest gathering of folk artists and folk artists craftsmen from neighboring countries are attracted to kaziukas fair not only in the most remote places of lithuania saint casimirs fair also features music dance and theater performances,festivals,Europe/Vilnius,25.2796514,54.6871555,Vilniaus apskritis,"25.2796514,54.6871555",LT,500000.0,100,100.0,20579219.0,Kaziukas Fair,Vilnius,2,99,kaziukas fair sourced from predicthqcom  every year in the first days of march the streets of the old town of vilnius overwhelm the lush kaziukas weekend this is the largest gathering of folk artists and folk artists craftsmen from neighboring countries are attracted to kaziukas fair not only in the most remote places of lithuania saint casimirs fair also features music dance and theater performances festivals Vilnius
6khy2mp2zazybqrmpl,yilan green expo,sourced from predicthqcom  the yilan green expo was established in 2000 with a focus on green living conservation and ecofriendly agriculture this event includes themed exhibitions outdoor education and recreation environmental friendliness is at its core it highlights the beauty of taiwans shimmering green rice fields lush forests mountains seas lakes and rivers,expos,Asia/Taipei,121.8144652,24.6106094,Yilan County,"121.8144652,24.6106094",TW,400000.0,100,100.0,45176242.0,Yilan Green Expo,Taipei,1,89,yilan green expo sourced from predicthqcom  the yilan green expo was established in 2000 with a focus on green living conservation and ecofriendly agriculture this event includes themed exhibitions outdoor education and recreation environmental friendliness is at its core it highlights the beauty of taiwans shimmering green rice fields lush forests mountains seas lakes and rivers expos Taipei
6ec7rvgbpejj4vbqml,garden grove strawberry festival,sourced from predicthqcom,festivals,America/Los_Angeles,0.0,0.0,California,"-117.9402367366953,33.77788047824311",US,300000.0,100,100.0,23284730.0,Garden Grove Strawberry Festival,Los Angeles,2,50,garden grove strawberry festival sourced from predicthqcom festivals Los Angeles
6phrsiii4eu6mquzld,ciff phase ii  officecommercial furniture,sourced from predicthqcom,expos,Asia/Shanghai,113.357894,23.104038,Guang Dong Sheng,"113.357894,23.104038",CN,363449.0,100,100.0,42088034.0,CIFM,Guangzhou,1,37,ciff phase ii  officecommercial furniture sourced from predicthqcom expos Guangzhou
6xiaz6bhfmt6far3ld,pima county fair,sourced from predicthqcom  the pima county fair is a funfair that happens every year in tucson arizona the fair runs for 11 days in the month of april it features live animal shows concerts carnival rides and vendors hundreds of local groups perform every year the pima county fair is one of the most popular attractions in tucson,festivals,America/Phoenix,0.0,0.0,Arizona,"-110.77809250989925,32.038176152325995",US,324000.0,100,100.0,24728608.0,"Pima County Fairgrounds,Pima County Fair",Phoenix,2,72,pima county fair sourced from predicthqcom  the pima county fair is a funfair that happens every year in tucson arizona the fair runs for 11 days in the month of april it features live animal shows concerts carnival rides and vendors hundreds of local groups perform every year the pima county fair is one of the most popular attractions in tucson festivals Phoenix
6xvptxkaqmv7ftrekr,st patricks day parade,sourced from predicthqcom  the st patricks day parade celebrates irelands history culture and heritage through entertainment,festivals,America/Toronto,0.0,0.0,Ontario,"-79.38833140242554,43.66581712510871",CA,500000.0,100,100.0,42928700.0,St Patrick's Day Parade,Toronto,2,92,st patricks day parade sourced from predicthqcom  the st patricks day parade celebrates irelands history culture and heritage through entertainment festivals Toronto
75acyyx9ephqkj5ekb,cmef spring,sourced from predicthqcom,expos,Asia/Shanghai,121.306102,31.190706,Shang Hai Shi,"121.306102,31.190706",CN,310000.0,100,100.0,38200907.0,,Shanghai,1,84,cmef spring sourced from predicthqcom expos Shanghai
7jepyd8cavdu5tbxqc,leesburg bikefest,sourced from predicthqcom  leesburg bikefest is laid out over 30 city blocks and eight venues on and around main street offering some 200 vendors a variety of bike shows stunt shows poker runs and 60 concerts,festivals,America/New_York,0.0,0.0,Florida,"-81.87684447761026,28.811012158473698",US,300000.0,100,100.0,22458914.0,Leesburg Bikefest,Miami,2,58,leesburg bikefest sourced from predicthqcom  leesburg bikefest is laid out over 30 city blocks and eight venues on and around main street offering some 200 vendors a variety of bike shows stunt shows poker runs and 60 concerts festivals Miami
7k9nvzuyjyuvfx35wx,international famous furniture fair,sourced from predicthqcom  international famous furniture fair features an exclusive and comprehensive range of designinspired furniture and furnishings from more than 1500 leading brands,expos,Asia/Shanghai,113.660196,22.900216,Guangdong Sheng,"113.660196,22.900216",CN,500000.0,100,100.0,50588465.0,"Guangdong Modern International Exhibition Center,International Famous Furniture Fair",Guangzhou,1,37,international famous furniture fair sourced from predicthqcom  international famous furniture fair features an exclusive and comprehensive range of designinspired furniture and furnishings from more than 1500 leading brands expos Guangzhou
7ll4g6darvebryrsws,rodeo austin,sourced from predicthqcom  rodeo austin is one of americas top five prorodeos it is a family event that features performances concerts livestock show and auctions shopping food and more,festivals,America/Chicago,0.0,0.0,Texas,"-97.6213732108931,30.28921823008933",US,455000.0,100,100.0,36197890.0,"Rodeo Austin,Rodeo Austin",Houston,2,41,rodeo austin sourced from predicthqcom  rodeo austin is one of americas top five prorodeos it is a family event that features performances concerts livestock show and auctions shopping food and more festivals Houston
7cks63yyxq3ndd7ekw,artscape,sourced from predicthqcom  artscape featured more than 200 artist performers and over 100 visual artists and artisans todays artscape will include visual art exhibitions main stage music performances culinary delights community gathering spaces immersive family  youth experiences an artist marketplace and so much more,festivals,America/New_York,0.0,0.0,Maryland,"-76.6225585440381,39.307072472939865",US,350000.0,100,100.0,25356458.0,Baltimore Artscape,Baltimore,2,6,artscape sourced from predicthqcom  artscape featured more than 200 artist performers and over 100 visual artists and artisans todays artscape will include visual art exhibitions main stage music performances culinary delights community gathering spaces immersive family  youth experiences an artist marketplace and so much more festivals Baltimore
7w2d37vbgz5ksnpgyg,dicks sporting goods pittsburgh marathon,sourced from predicthqcom  embark on a 262mile adventure like no other as you traverse the iconic dicks sporting goods pittsburgh marathon course get ready to be captivated by the dynamic fusion of urban energy and natural beauty as you conquer streets trails bridges and neighborhoods that define the essence of this vibrant city,sports,America/New_York,0.0,0.0,Pennsylvania,"-79.9637823552983,40.44988284041699",US,340000.0,100,100.0,30733185.0,DICK'S Sporting Goods Pittsburgh Marathon,Philadelphia,3,71,dicks sporting goods pittsburgh marathon sourced from predicthqcom  embark on a 262mile adventure like no other as you traverse the iconic dicks sporting goods pittsburgh marathon course get ready to be captivated by the dynamic fusion of urban energy and natural beauty as you conquer streets trails bridges and neighborhoods that define the essence of this vibrant city sports Philadelphia
84dm2wbwabkixzas2q,expodireto cotrijal,sourced from predicthqcom,expos,America/Sao_Paulo,-52.814371,-28.4593372,Rio Grande do Sul,"-52.814371,-28.4593372",BR,377600.0,100,100.0,39590854.0,Expodireto Cotrijal,Porto Alegre,1,74,expodireto cotrijal sourced from predicthqcom expos Porto Alegre
cd6kueuvkjs83q65qz,sxsw,sourced from predicthqcom  south by southwest dedicates itself to helping creative people achieve their goals founded in 1987 in austin texas sxsw is best known for its conference and festivals that celebrate the convergence of tech film music education and culture,festivals,America/Chicago,0.0,0.0,Texas,"-97.73945813606086,30.26353005276549",US,345066.0,100,100.0,27451942.0,SXSW,Houston,2,41,sxsw sourced from predicthqcom  south by southwest dedicates itself to helping creative people achieve their goals founded in 1987 in austin texas sxsw is best known for its conference and festivals that celebrate the convergence of tech film music education and culture festivals Houston
cgpmupcxkimhcegrdf,expozebu,sourced from predicthqcom  expozebu is one of the largest agricultural fairs in the world specifically focused on zebu cattle its held annually in uberaba minas gerais brazil by the abcz brazilian association of zebu breeders the fair showcases exhibits auctions lectures judging and business opportunities related to zebu cattle farming it also includes shows and cultural attractions,expos,America/Sao_Paulo,-47.9454643,-19.7696684,Minas Gerais,"-47.9454643,-19.7696684",BR,400000.0,100,100.0,35667616.0,ExpoZebu,Belo Horizonte,1,11,expozebu sourced from predicthqcom  expozebu is one of the largest agricultural fairs in the world specifically focused on zebu cattle its held annually in uberaba minas gerais brazil by the abcz brazilian association of zebu breeders the fair showcases exhibits auctions lectures judging and business opportunities related to zebu cattle farming it also includes shows and cultural attractions expos Belo Horizonte
cwsuxujdnpyovcmw7z,cinco de mayo festival  denver,sourced from predicthqcom  a weekend filled with food fun and culture denvers cinco de mayo celebrate culture festival puts the spotlight on the mile high citys vibrant latino population with more than 400000 attendees expected its one of denvers most fun and familyfriendly events this years festival will feature live music and dance performances on three stages,festivals,America/Denver,0.0,0.0,Colorado,"-104.98870694677106,39.7391259884169",US,400000.0,100,100.0,32598758.0,"Civic Center Park,Cinco de Mayo Festival",Denver,2,29,cinco de mayo festival  denver sourced from predicthqcom  a weekend filled with food fun and culture denvers cinco de mayo celebrate culture festival puts the spotlight on the mile high citys vibrant latino population with more than 400000 attendees expected its one of denvers most fun and familyfriendly events this years festival will feature live music and dance performances on three stages festivals Denver
ddlye8stu4c2ufoxrp,international furnishing accessories exhibition,sourced from predicthqcom,expos,Europe/Rome,9.0787626,45.521214,Lombardia,"9.0787626,45.521214",IT,370000.0,100,100.0,68175649.0,"Fiera Milano,International Furnishing Accessories Exhibition",Milan,1,59,international furnishing accessories exhibition sourced from predicthqcom expos Milan
dphgcfg5gkanxzigwf,special olympics world winter,sourced from predicthqcom  all around the world our athletes train and strive to achieve their very best every day during world games the entire special olympics movement comes together to see our athletes in action and celebrate their victories over huge odds no other event in the world has the social and emotional impact of the special olympics world games for the athletes and their families the experience opens doors to unimagined possibilities for volunteers coaches and other supporters from all parts of the world the games inspire hope for and belief in a brighter future of global acceptance understanding and unity,sports,Europe/Rome,7.3790071,45.2115816,Piedmont,"7.3790071,45.2115816",IT,303100.0,100,100.0,21799394.0,Special Olympics World Winter,Turin,3,94,special olympics world winter sourced from predicthqcom  all around the world our athletes train and strive to achieve their very best every day during world games the entire special olympics movement comes together to see our athletes in action and celebrate their victories over huge odds no other event in the world has the social and emotional impact of the special olympics world games for the athletes and their families the experience opens doors to unimagined possibilities for volunteers coaches and other supporters from all parts of the world the games inspire hope for and belief in a brighter future of global acceptance understanding and unity sports Turin
duw4nxk3f3pmiy8mfg,salone del mobile,sourced from predicthqcom  salone del mobile is a leading trade show for home furnishing and interior design founded in 1989 in response to the growing demand for decorating proposals the exhibition has established itself as the leading event in the sector able to present a choice of excellent items each year more and more varied and rich,expos,Europe/Rome,9.0788296,45.5197708,Lombardia,"9.0788296,45.5197708",IT,302548.0,100,100.0,55747112.0,Salone del Mobile,Milan,1,59,salone del mobile sourced from predicthqcom  salone del mobile is a leading trade show for home furnishing and interior design founded in 1989 in response to the growing demand for decorating proposals the exhibition has established itself as the leading event in the sector able to present a choice of excellent items each year more and more varied and rich expos Milan
dyqztxh6bqtdumcu9n,boston marathon,sourced from predicthqcom  the boston marathon is an annual marathon hosted by several cities in greater boston in eastern massachusetts united states,sports,America/New_York,0.0,0.0,Massachusetts,"-71.30227852588236,42.30140771214191",US,500000.0,100,100.0,48932589.0,Boston Marathon,Boston,3,18,boston marathon sourced from predicthqcom  the boston marathon is an annual marathon hosted by several cities in greater boston in eastern massachusetts united states sports Boston
dyqxhfmmhk3mjzmdvf,international fair of san jose de david,sourced from predicthqcom  fida or the international fair of david is a general activity held every year in march and brings together more than 500 exhibitors who motivated by the comfortable facilities and facilities offered increasingly expand their industrial commercial craft participation agricultural folkloric cultural educational and technological,expos,America/Panama,-82.4383748,8.4207108,Provincia de Chiriquí,"-82.4383748,8.4207108",PA,300000.0,100,100.0,28471878.0,International Fair of San Jose de David,Panama City,1,68,international fair of san jose de david sourced from predicthqcom  fida or the international fair of david is a general activity held every year in march and brings together more than 500 exhibitors who motivated by the comfortable facilities and facilities offered increasingly expand their industrial commercial craft participation agricultural folkloric cultural educational and technological expos Panama City
eallpbzkykzc4b7dhn,skagit valley tulip festival,sourced from predicthqcom  skagit valley tulip festival is washingtons largest tulip fest held annually in april celebrating millions of tulips bursting into bloom  the fields of tulips are scattered throughout the skagit valley as are the many events and activities included in the festival,festivals,America/Los_Angeles,0.0,0.0,Washington,"-122.42329403715522,48.41655137283056",US,400000.0,100,100.0,35602011.0,Skagit Valley Tulip Festival,Seattle,2,81,skagit valley tulip festival sourced from predicthqcom  skagit valley tulip festival is washingtons largest tulip fest held annually in april celebrating millions of tulips bursting into bloom  the fields of tulips are scattered throughout the skagit valley as are the many events and activities included in the festival festivals Seattle
esqxavlera4vskr9ta,festival international de louisiane,sourced from predicthqcom  every year the festival international de louisiane is one of the biggest entertainment events in louisiana and this year is no different the nonprofit festival will take place april 2630 this year and will be featuring an impressive lineup of performers representing eighteen different regions festival international is one of our favorite events of the spring aside from the start of crawfish season of course,festivals,America/Chicago,0.0,0.0,Louisiana,"-92.01721425000001,30.22332715000001",US,300000.0,100,100.0,23423492.0,Festival International de Louisiane,New Orleans,2,64,festival international de louisiane sourced from predicthqcom  every year the festival international de louisiane is one of the biggest entertainment events in louisiana and this year is no different the nonprofit festival will take place april 2630 this year and will be featuring an impressive lineup of performers representing eighteen different regions festival international is one of our favorite events of the spring aside from the start of crawfish season of course festivals New Orleans
evjn4j5xl4jq3qybsg,the miami open,sourced from predicthqcom  the international tennis tournament in miami,sports,America/New_York,-80.23886040000002,25.9579665,Florida,"-80.23886040000002,25.9579665",US,390000.0,100,100.0,180534718.0,"Hard Rock Stadium,The Miami Open",Miami,3,58,the miami open sourced from predicthqcom  the international tennis tournament in miami sports Miami
em6fgxd3wnc5vm8naf,indexpo vizag,sourced from predicthqcom,expos,Asia/Kolkata,83.341496,17.737617,Andhra Pradesh,"83.341496,17.737617",IN,300000.0,100,100.0,16705816.0,"Gadiraju Palace Convention Center & Hotel,IndExpo Vizag",Hyderabad,1,42,indexpo vizag sourced from predicthqcom expos Hyderabad
fdnudtkpgxzt9ryb9b,ponchatoula strawberry festival,sourced from predicthqcom  this is a fundraiser event which is full of of great food strawberries vendor booths rides live entertainment and much more,festivals,America/Chicago,0.0,0.0,Louisiana,"-90.44473606330581,30.441577487362718",US,350000.0,100,100.0,27872333.0,Ponchatoula Strawberry Festival,New Orleans,2,64,ponchatoula strawberry festival sourced from predicthqcom  this is a fundraiser event which is full of of great food strawberries vendor booths rides live entertainment and much more festivals New Orleans
fxsnea2v6xctstthbi,vienna city marathon,sourced from predicthqcom  the vienna city marathon is an annual marathon race over the classic distance of 42195 km held in vienna austria since 1984,sports,Europe/Vienna,0.0,0.0,,"16.378273826640072,48.205833297226505",AT,400000.0,100,100.0,37237248.0,Vienna City Marathon,Unknown,3,95,vienna city marathon sourced from predicthqcom  the vienna city marathon is an annual marathon race over the classic distance of 42195 km held in vienna austria since 1984 sports Unknown
ftljkjg4dncqnbb8mg,festival art souterrain,sourced from predicthqcom  every year since 2009 this festival takes over montréals underground network for three weeks of exhibitions bringing together local and international artists around a common theme the objective is to make contemporary art accessible to a large public,festivals,America/Toronto,0.0,0.0,Québec,"-73.56908289283155,45.5014545069601",CA,500000.0,100,100.0,38418656.0,Festival Art Souterrain,Montreal,2,60,festival art souterrain sourced from predicthqcom  every year since 2009 this festival takes over montréals underground network for three weeks of exhibitions bringing together local and international artists around a common theme the objective is to make contemporary art accessible to a large public festivals Montreal
gsdosaugeqtuwq73bl,penghu international fireworks festival,sourced from predicthqcom  the penghu international fireworks festival its a spectacular show that lights up the evening sky over the isles that people look forward to seeing every summer the amazing highaltitude fireworks display romantic music cascading rockets and a sea of lanterns all turn penghu into a resplendent scene more and more beautiful as night falls,festivals,Asia/Taipei,119.5861581,23.5661218,澎湖縣,"119.5861581,23.5661218",TW,500000.0,100,100.0,20337396.0,Penghu International Fireworks Festival,Taipei,2,89,penghu international fireworks festival sourced from predicthqcom  the penghu international fireworks festival its a spectacular show that lights up the evening sky over the isles that people look forward to seeing every summer the amazing highaltitude fireworks display romantic music cascading rockets and a sea of lanterns all turn penghu into a resplendent scene more and more beautiful as night falls festivals Taipei
gu3yk8dzmb9ekuuyzh,taipei international tourism exposition,sourced from predicthqcom,expos,Asia/Taipei,121.56234700000005,25.033155,Taipei City,"121.56234700000005,25.033155",TW,309900.0,100,99.0,42556603.0,"Taipei World Trade Center,Taipei International Tourism Exposition",Taipei,1,89,taipei international tourism exposition sourced from predicthqcom expos Taipei
heje5sp6zdswnovzsc,comex it show,sourced from predicthqcom  with more than 500 brands ranging from tech gadgets and  smarthome musthaves it is the biggest technology exhibition in singapore attracting more more than 150 exhibitors at each event,expos,Asia/Singapore,103.85825,1.29455,,"103.85825,1.29455",SG,500000.0,100,100.0,82813569.0,"Suntec City,Comex IT Show",Unknown,1,95,comex it show sourced from predicthqcom  with more than 500 brands ranging from tech gadgets and  smarthome musthaves it is the biggest technology exhibition in singapore attracting more more than 150 exhibitors at each event expos Unknown
hr9anaebgda5g39deu,vietbuild hanoi 2025 phase 1  international construction exhibition,sourced from predicthqcom,expos,Asia/Bangkok,105.785369,21.008922,,"105.785369,21.008922",VN,350000.0,100,100.0,25020192.0,National Exhibition Construction Center,Unknown,1,95,vietbuild hanoi 2025 phase 1  international construction exhibition sourced from predicthqcom expos Unknown
pruvntxlhszstjphva,automobile barcelona,sourced from predicthqcom,expos,Europe/Madrid,2.1512547,41.3741689,Catalunya,"2.1512547,41.3741689",ES,300000.0,100,100.0,48357518.0,"Fira de Barcelona - Montjuïc,AUTOMOBILE BARCELONA",Barcelona,1,8,automobile barcelona sourced from predicthqcom expos Barcelona
8el3dfk2zbrryuta2w,lake county fair,sourced from predicthqcom  the lake county fair is a family orientated agricultural event which provides education and entertainment upholding family values and traditions featuring delicious fair foods and exciting rides,festivals,America/New_York,0.0,0.0,Florida,"-81.6986509365688,28.877233161578634",US,234511.0,97,100.0,17556283.0,Lake County Fair,Miami,2,58,lake county fair sourced from predicthqcom  the lake county fair is a family orientated agricultural event which provides education and entertainment upholding family values and traditions featuring delicious fair foods and exciting rides festivals Miami
bmvhnfjpfknjpzqdjt,japanese grand prix,sourced from predicthqcom  the japanese grand prix is a race in the calendar of the fia formula one world championship historically japan has been one of the last races of the season and as such the japanese grand prix has been the venue for many titledeciding races,sports,Asia/Tokyo,136.5389522,34.8455935,Mie-ken,"136.5389522,34.8455935",JP,229000.0,97,100.0,82106650.0,"Suzuka Circuit,Japanese Grand Prix",Tsu,3,93,japanese grand prix sourced from predicthqcom  the japanese grand prix is a race in the calendar of the fia formula one world championship historically japan has been one of the last races of the season and as such the japanese grand prix has been the venue for many titledeciding races sports Tsu
c9tbjgrlmvpuzevgvb,science rendezvous,sourced from predicthqcom  science rendezvous is a free annual allday festival that brings science out of the lab and onto the street with the ultimate goal of improving student enrollment as well as public involvement in the science technology engineering art and mathematics steam fields,festivals,America/Toronto,-85.3232139,51.253775,,"-85.3232139,51.253775",CA,215000.0,97,100.0,16104479.0,Science Rendezvous,Unknown,2,95,science rendezvous sourced from predicthqcom  science rendezvous is a free annual allday festival that brings science out of the lab and onto the street with the ultimate goal of improving student enrollment as well as public involvement in the science technology engineering art and mathematics steam fields festivals Unknown
d5b5or77qgw348w63s,fort lauderdale air show 2025,sourced from predicthqcom  the air  sea show is an annual air show in ft lauderdale florida in which military and civilian performances take place on the four mile stretch of beach from oakland park to las olas boulevard,festivals,America/New_York,0.0,0.0,FL,"-80.10192899186225,26.14319395186697",US,219990.0,97,100.0,17269505.0,Fort Lauderdale Air Show,Miami,2,58,fort lauderdale air show 2025 sourced from predicthqcom  the air  sea show is an annual air show in ft lauderdale florida in which military and civilian performances take place on the four mile stretch of beach from oakland park to las olas boulevard festivals Miami
declxru3l2jtmm5jrc,ideal home show,sourced from predicthqcom  from inspiring ideas to innovative products and ontrend solutions for your home the ideal home show sponsored by zoopla brings together full scale show homes over 600 companies 100s of free talks the latest technology and fresh ideas from our team of experts the show will also offer health and wellbeing advice and an opportunity to be pampered all for the price of your ticket,expos,Europe/London,-0.2106880999999703,51.4965005,England,"-0.2106880999999703,51.4965005",GB,229223.0,97,100.0,45962706.0,"Olympia London,Ideal Home Show",London,1,49,ideal home show sourced from predicthqcom  from inspiring ideas to innovative products and ontrend solutions for your home the ideal home show sponsored by zoopla brings together full scale show homes over 600 companies 100s of free talks the latest technology and fresh ideas from our team of experts the show will also offer health and wellbeing advice and an opportunity to be pampered all for the price of your ticket expos London
exvzzzopdfqttfyf9z,pet expo thailand 2025,sourced from predicthqcom,expos,Asia/Bangkok,100.5589822,13.7245354,Krung Thep Maha Nakhon,"100.5589822,13.7245354",TH,225600.0,97,100.0,20000357.0,,Bangkok,1,7,pet expo thailand 2025 sourced from predicthqcom expos Bangkok
gsnqytvlgrgnfshvzq,air dot show,sourced from predicthqcom,expos,America/New_York,0.0,0.0,,"-80.10192899186225,26.14319395186697",US,219980.0,97,100.0,44671903.0,,Unknown,1,95,air dot show sourced from predicthqcom expos Unknown
hesnqgzm2rhepgyjde,turin book fair,sourced from predicthqcom,expos,Europe/Rome,7.663628,45.0288639,Piemonte,"7.663628,45.0288639",IT,222000.0,97,100.0,28456068.0,"Lingotto Fiere Torino,Turin Book Fair",Turin,1,94,turin book fair sourced from predicthqcom expos Turin
hxjxntut3j8ekggm73,euregio economic show,sourced from predicthqcom  euregio wirtschaftsschau  euregio business show is a 10 day event being held from 2 to 11 march 2018 at the chio aachen in aachen germany being a part of this show will help the exhibitors to interact with other fellow exhibitors and by exchanging dialogues they will get a good opportunity to form an efficient business network which will help the companies to have an efficient market reach,expos,Europe/Berlin,6.094567,50.795662,Nordrhein-Westfalen,"6.094567,50.795662",DE,225000.0,97,100.0,27974130.0,Euregio Wirtschaftsschau,Berlin,1,12,euregio economic show sourced from predicthqcom  euregio wirtschaftsschau  euregio business show is a 10 day event being held from 2 to 11 march 2018 at the chio aachen in aachen germany being a part of this show will help the exhibitors to interact with other fellow exhibitors and by exchanging dialogues they will get a good opportunity to form an efficient business network which will help the companies to have an efficient market reach expos Berlin
htrg5evtmtpyspgokk,la noche en blanco,sourced from predicthqcom  la noche en blanco is an initiative that allows people to experience culture in a special way the whole city and its visitors go out that night to visit museums monuments listen to concerts and enjoy the hundreds of free activities that are offered during the evening,festivals,Europe/Madrid,-4.75,36.8,Andalucía,"-4.75,36.8",ES,230000.0,97,100.0,13666379.0,La Noche en Blanco,Madrid,2,54,la noche en blanco sourced from predicthqcom  la noche en blanco is an initiative that allows people to experience culture in a special way the whole city and its visitors go out that night to visit museums monuments listen to concerts and enjoy the hundreds of free activities that are offered during the evening festivals Madrid
35mvezgbhbau5wumff,the players championship,sourced from predicthqcom  the players championship is an annual golf tournament on the pga tour originally known as the tournament players championship it began in 1974 the players championship at one point offered the highest purse of any tournament in golf,sports,America/New_York,-81.3954708,30.1980135,Florida,"-81.3954708,30.1980135",US,200000.0,96,100.0,79045394.0,"TPC Sawgrass,The Players Championship",Miami,3,58,the players championship sourced from predicthqcom  the players championship is an annual golf tournament on the pga tour originally known as the tournament players championship it began in 1974 the players championship at one point offered the highest purse of any tournament in golf sports Miami
35xjynemgbk7nf2wds,china bakery exhibition,sourced from predicthqcom,expos,Asia/Shanghai,113.357894,23.104038,Guang Dong Sheng,"113.357894,23.104038",CN,200000.0,96,100.0,20923418.0,"Canton Fair Complex,China Bakery Exhibition",Guangzhou,1,37,china bakery exhibition sourced from predicthqcom expos Guangzhou
3sfy8xbbqrv4dnzwtv,the steel horse rally,sourced from predicthqcom  a charity motorcycle rally in downtown fort smith arkansas and one of the areas premiere twoday events and is one of the fastestgrowing motorcycle rallies in the country in addition the event also features live music miss steel horse rally bikini contest and more,festivals,America/Chicago,0.0,0.0,Arkansas,"-94.425194,35.38723670000001",US,210000.0,96,100.0,15245651.0,The Steel Horse Rally,Little Rock,2,48,the steel horse rally sourced from predicthqcom  a charity motorcycle rally in downtown fort smith arkansas and one of the areas premiere twoday events and is one of the fastestgrowing motorcycle rallies in the country in addition the event also features live music miss steel horse rally bikini contest and more festivals Little Rock
3niegcts5gec6d4cbw,mayfest fort worth,sourced from predicthqcom  mayfest is the biggest party in fort worth four days of live music festival food carnival rides performing arts pet adoptions more than 60 art and gift market vendors free childrens activities special attractions and more,festivals,America/Chicago,0.0,0.0,Texas,"-97.35474862426737,32.744388236749735",US,200000.0,96,100.0,14742938.0,Mayfest Fort Worth,Houston,2,41,mayfest fort worth sourced from predicthqcom  mayfest is the biggest party in fort worth four days of live music festival food carnival rides performing arts pet adoptions more than 60 art and gift market vendors free childrens activities special attractions and more festivals Houston
3wwjwdhyqcecq5x99v,nautic en seine,sourced from predicthqcom  the paris boat show salon nautique de paris attracts thousands of nautical  water sports enthusiasts converge on this annual convention dedicated to sailboats motorboats yachts kayaks kite boards  more,expos,Europe/Paris,2.2904507,48.8300389,Île-de-France,"2.2904507,48.8300389",FR,204000.0,96,100.0,40248583.0,"Paris Expo Porte de Versailles,Nautic en Seine",Paris,1,69,nautic en seine sourced from predicthqcom  the paris boat show salon nautique de paris attracts thousands of nautical  water sports enthusiasts converge on this annual convention dedicated to sailboats motorboats yachts kayaks kite boards  more expos Paris
437rmhwlrwpxpgerky,shenzhen gifts  home fair  spring,sourced from predicthqcom,expos,Asia/Shanghai,113.7696755,22.6996734,Guangdong Sheng,"113.7696755,22.6996734",CN,200000.0,96,100.0,29272702.0,"Shenzhen World Exhibition & Convention Center,Gifts Home Shenzhen Season",Guangzhou,1,37,shenzhen gifts  home fair  spring sourced from predicthqcom expos Guangzhou
44xqtdv9hnpchhqyuf,foire internationale de bordeaux,sourced from predicthqcom  international fair of bordeaux,expos,Europe/Paris,-0.5774903,44.8941078,Nouvelle-Aquitaine,"-0.5774903,44.8941078",FR,190000.0,96,100.0,31283709.0,"Parc des Expositions de Bordeaux lac,Foire Internationale de Bordeaux",Bordeaux,1,17,foire internationale de bordeaux sourced from predicthqcom  international fair of bordeaux expos Bordeaux
45xgtncvdvgnfknpof,abu dhabi international book fair,sourced from predicthqcom  the abu dhabi international book fair is a global platform where members of the creative and publishing industries come together to read learn and grow it is more than just a fair  it is a hub of opportunities where likeminded visitors can meet establish partnerships discover the latest trends and build up their passions,expos,Asia/Dubai,54.43699629999992,24.4189545,Abu Dhabi,"54.43699629999992,24.4189545",AE,200000.0,96,100.0,34220778.0,"Abu Dhabi National Exhibition Centre,Abu Dhabi International Book Fair",Abu Dhabi,1,0,abu dhabi international book fair sourced from predicthqcom  the abu dhabi international book fair is a global platform where members of the creative and publishing industries come together to read learn and grow it is more than just a fair  it is a hub of opportunities where likeminded visitors can meet establish partnerships discover the latest trends and build up their passions expos Abu Dhabi
46wyzhekb7rv83crvu,aquitaine agricultural show,sourced from predicthqcom,expos,Europe/Paris,-0.575973,44.894598,Nouvelle-Aquitaine,"-0.575973,44.894598",FR,190000.0,96,100.0,39454049.0,Aquitaine Agricultural Show,Bordeaux,1,17,aquitaine agricultural show sourced from predicthqcom expos Bordeaux
5rpmnhtxiy33tbpch7,georgia renaissance festival,sourced from predicthqcom  the georgia renaissance festival is an enchanting and immersive event that transports visitors back in time to the era of knights jesters and fair maidens spanning across a vast 15acre festival grounds this lively celebration offers a unique experience filled with live entertainment artisan crafts thrilling jousting matches and delectable renaissanceinspired cuisine,festivals,America/New_York,0.0,0.0,Georgia,"-84.60085935387565,33.566651089732055",US,200000.0,96,100.0,13506073.0,Georgia Renaissance Festival,Atlanta,2,5,georgia renaissance festival sourced from predicthqcom  the georgia renaissance festival is an enchanting and immersive event that transports visitors back in time to the era of knights jesters and fair maidens spanning across a vast 15acre festival grounds this lively celebration offers a unique experience filled with live entertainment artisan crafts thrilling jousting matches and delectable renaissanceinspired cuisine festivals Atlanta
6mrkry7a4ngedgwwt6,foire de lyon,sourced from predicthqcom  lyon international fair,expos,Europe/Paris,4.951443,45.731008,Auvergne-Rhône-Alpes,"4.951443,45.731008",FR,205000.0,96,100.0,30973628.0,Foire de Lyon,Paris,1,69,foire de lyon sourced from predicthqcom  lyon international fair expos Paris
6z3hefv5ju5lmigf9t,awe,sourced from predicthqcom,expos,Asia/Shanghai,121.564912,31.208904,Shanghai,"121.564912,31.208904",CN,192000.0,96,95.0,23479321.0,"Shanghai New International Expo Center,Appliance Electronics World Expo",Shanghai,1,84,awe sourced from predicthqcom expos Shanghai
7cuzleriakklssiv2u,att byron nelson championship,sourced from predicthqcom  the att byron nelson is a golf tournament in texas on the pga tour,sports,America/Chicago,-96.719728,33.140778,Texas,"-96.719728,33.140778",US,200000.0,96,100.0,15678276.0,AT&T Byron Nelson Championship,Houston,3,41,att byron nelson championship sourced from predicthqcom  the att byron nelson is a golf tournament in texas on the pga tour sports Houston
84ecsrpylxv6oukuek,taiwan international orchid show,sourced from predicthqcom  the annual taiwan international orchid show began in 2005 its held in the taiwan orchid biotechnology park which is located in tainan citys houbi district,expos,Asia/Taipei,120.3776358,23.3391784,Tainan City,"120.3776358,23.3391784",TW,200000.0,96,100.0,18438357.0,Taiwan International Orchid Show,Tainan,1,88,taiwan international orchid show sourced from predicthqcom  the annual taiwan international orchid show began in 2005 its held in the taiwan orchid biotechnology park which is located in tainan citys houbi district expos Tainan
8kwgqygua9kha6d5ld,hydrogen  fuel cells europe,sourced from predicthqcom,expos,Europe/Berlin,9.806113,52.322855,Niedersachsen,"9.806113,52.322855",DE,200000.0,96,100.0,26413779.0,"Deutsche Messe AG,Hydrogen + Fuel Cells Europe",Hamburg,1,38,hydrogen  fuel cells europe sourced from predicthqcom expos Hamburg
8t2ywhdygohpecppyo,welcome to rockville,sourced from predicthqcom  welcome to rockville is a rock festival held in the spring that features rock and heavy metal bands the festival was held annually at metropolitan park in jacksonville florida in november 2021 welcome to rockville moved to daytona beach florida,festivals,America/New_York,0.0,0.0,Florida,"-81.0705092036079,29.184237953871047",US,200000.0,96,100.0,15209930.0,"Daytona International Speedway,Welcome to Rockville",Miami,2,58,welcome to rockville sourced from predicthqcom  welcome to rockville is a rock festival held in the spring that features rock and heavy metal bands the festival was held annually at metropolitan park in jacksonville florida in november 2021 welcome to rockville moved to daytona beach florida festivals Miami
8ye3n7xdv4yfawvffw,doors open toronto,sourced from predicthqcom  doors open toronto is a free event that invites the public to explore and discover torontos sites of architectural historic and cultural significance during the last weekend of may visitors can participate in walking tours special activities and explore more than 150 properties that are either not usually open to the public or would normally charge an entrance fee,expos,America/Toronto,-79.3831843,43.653226,Ontario,"-79.3831843,43.653226",CA,200000.0,96,100.0,45635373.0,Doors Open Toronto,Toronto,1,92,doors open toronto sourced from predicthqcom  doors open toronto is a free event that invites the public to explore and discover torontos sites of architectural historic and cultural significance during the last weekend of may visitors can participate in walking tours special activities and explore more than 150 properties that are either not usually open to the public or would normally charge an entrance fee expos Toronto
8efqu9hnosz8qb37dn,corpus christi buc days,sourced from predicthqcom  held on the corpus christi bayfront in the spring this culturally diverse event grabs the attention of south texas it has something for everyone including a rodeo a carnival and two parades thousands of attendees line the streets each year awaiting the buc days leadership program scholars on our buc days float at the buc days night parade,festivals,America/Chicago,0.0,0.0,Texas,"-97.39496508258152,27.78531950606789",US,195900.0,96,100.0,13008724.0,Corpus Christi Buc Days,Houston,2,41,corpus christi buc days sourced from predicthqcom  held on the corpus christi bayfront in the spring this culturally diverse event grabs the attention of south texas it has something for everyone including a rodeo a carnival and two parades thousands of attendees line the streets each year awaiting the buc days leadership program scholars on our buc days float at the buc days night parade festivals Houston
9dov5cfqjd6sg7upuv,beijing building materials exhibition,sourced from predicthqcom,expos,Asia/Shanghai,116.549281,40.071208,Bei Jing Shi,"116.549281,40.071208",CN,200000.0,96,100.0,30715370.0,"China International Exhibition Center Shunyi,Beijing Building Materials Exhibition",Beijing,1,9,beijing building materials exhibition sourced from predicthqcom expos Beijing
9feaykbbkpbhvenjdm,shamrocks and shenanigans celebration,sourced from predicthqcom  the shamrocks and shenanigans celebration is a lively festival event that ignites the spirit of st patricks day with a vibrant atmosphere of music dance and revelry from traditional irish entertainment to mouthwatering food and drinks this event offers an immersive experience that celebrates the rich cultural heritage of the irish,festivals,America/New_York,0.0,0.0,Georgia,"-81.09538463296347,32.083498046586875",US,200000.0,96,100.0,17085685.0,Shamrocks Shenanigans Celebration,Atlanta,2,5,shamrocks and shenanigans celebration sourced from predicthqcom  the shamrocks and shenanigans celebration is a lively festival event that ignites the spirit of st patricks day with a vibrant atmosphere of music dance and revelry from traditional irish entertainment to mouthwatering food and drinks this event offers an immersive experience that celebrates the rich cultural heritage of the irish festivals Atlanta
9tq8uzdbqalk2msczu,china xiamen international buddhist items  crafts fair,sourced from predicthqcom,expos,Asia/Shanghai,118.183489,24.467182,,"118.183489,24.467182",CN,200000.0,96,100.0,19857337.0,"Xiamen international Conference & Exhibition Center,China Xiamen International Buddhist Items & Crafts Fair",Unknown,1,95,china xiamen international buddhist items  crafts fair sourced from predicthqcom expos Unknown
9hwc3pftcdna8ybcp9,summerville family ymca flowertown festival,sourced from predicthqcom  the summerville family ymca flowertown festival is a vibrant and lively event that celebrates the arrival of spring with various activities including arts and crafts booths live music performances delicious food vendors and stunning displays of flowers and plants whether youre looking for an outing with family or a weekend of fun with friends this festival provides an enjoyable and captivating experience for everyone,festivals,America/New_York,0.0,0.0,South Carolina,"-80.17833393147741,33.01424594942006",US,200000.0,96,100.0,13125735.0,Summerville Family YMCA Flowertown Festival,Charleston,2,24,summerville family ymca flowertown festival sourced from predicthqcom  the summerville family ymca flowertown festival is a vibrant and lively event that celebrates the arrival of spring with various activities including arts and crafts booths live music performances delicious food vendors and stunning displays of flowers and plants whether youre looking for an outing with family or a weekend of fun with friends this festival provides an enjoyable and captivating experience for everyone festivals Charleston
9knhbdv98pmhfrxytj,isle 2025,sourced from predicthqcom  leyard is excited to invite you to the international smart display and integrated system exhibition isle 2025 ,expos,Asia/Shanghai,113.7696755,22.6996734,Guangdong Province,"113.7696755,22.6996734",CN,200000.0,96,100.0,30134401.0,,Guangzhou,1,37,isle 2025 sourced from predicthqcom  leyard is excited to invite you to the international smart display and integrated system exhibition isle 2025  expos Guangzhou
9psbbalzaoczbg6w59,pier 60 sugar sand festival,sourced from predicthqcom  the biggest sand sculpting festival in florida come and watch artists creating their amazing sand sculptures enjoy free live music fireworks kids play zones sand sculpting classes and more,festivals,America/New_York,0.0,0.0,Florida,"-82.82906149006558,27.97711755866427",US,200000.0,96,100.0,15664438.0,Pier 60 Sugar Sand Festival,Miami,2,58,pier 60 sugar sand festival sourced from predicthqcom  the biggest sand sculpting festival in florida come and watch artists creating their amazing sand sculptures enjoy free live music fireworks kids play zones sand sculpting classes and more festivals Miami
acnwgfvfdocvjj4xnk,masters tournament,sourced from predicthqcom  the masters tournament usually referred to as simply the masters or as the us masters outside north america is one of the four mens major golf championships in professional golf the masters is the first major golf tournament of the year unlike the other major tournaments the masters is always held at the same location augusta national golf club a private course in the city of augusta georgia,sports,America/New_York,-82.0226276,33.5021365,Georgia,"-82.0226276,33.5021365",US,200000.0,96,100.0,98252206.0,"Augusta National Golf Club,Masters Tournament",Atlanta,3,5,masters tournament sourced from predicthqcom  the masters tournament usually referred to as simply the masters or as the us masters outside north america is one of the four mens major golf championships in professional golf the masters is the first major golf tournament of the year unlike the other major tournaments the masters is always held at the same location augusta national golf club a private course in the city of augusta georgia sports Atlanta
awuswtqrwazilkwtsc,agrishow experience,sourced from predicthqcom,expos,America/Sao_Paulo,-47.857179,-21.206766,São Paulo,"-47.857179,-21.206766",BR,195000.0,96,100.0,22313816.0,AGRISHOW - International Fair of Agricultural Technology in Action,São Paulo,1,87,agrishow experience sourced from predicthqcom expos São Paulo
azcxplga8szakvhsjr,emilia romagna grand prix,sourced from predicthqcom  the emilia romagna grand prix is a formula one motor racing event held at the autodromo internazionale enzo e dino ferrari the race is often referred to as imola after the town where it is located it is not to be confused with the san marino grand prix which is also held in the same venue and sometimes referred to as the imola grand prix,sports,Europe/Rome,11.7143509,44.3440738,Emilia-Romagna,"11.7143509,44.3440738",IT,200000.0,96,100.0,76731401.0,"Autodromo Enzo e Dino Ferrari,Imola Grand Prix",Bologna,3,16,emilia romagna grand prix sourced from predicthqcom  the emilia romagna grand prix is a formula one motor racing event held at the autodromo internazionale enzo e dino ferrari the race is often referred to as imola after the town where it is located it is not to be confused with the san marino grand prix which is also held in the same venue and sometimes referred to as the imola grand prix sports Bologna
fafhdine2yc9uhcenp,south texas state fair,sourced from predicthqcom,festivals,America/Chicago,0.0,0.0,Texas,"-94.18135482592496,30.009418823002722",US,175000.0,95,100.0,13203963.0,South Texas State Fair,Houston,2,41,south texas state fair sourced from predicthqcom festivals Houston
gf83ammazzps48hgxq,chengdu china building and decoration materials exposition,sourced from predicthqcom  ccbd china chengdu building expo has been committed to providing professional trade cooperation channels for national building materials and home furnishing manufacturers distribution agents real estate developers and constructiondecoration units and creating a preferred platform for the home furnishing and decoration industry with distribution agents and public decoration centralized procurement as the core,expos,Asia/Shanghai,104.0773217,30.4245101,Si Chuan Sheng,"104.0773217,30.4245101",CN,180000.0,95,100.0,15142417.0,Tianfu International Convention Center,Chengdu,1,26,chengdu china building and decoration materials exposition sourced from predicthqcom  ccbd china chengdu building expo has been committed to providing professional trade cooperation channels for national building materials and home furnishing manufacturers distribution agents real estate developers and constructiondecoration units and creating a preferred platform for the home furnishing and decoration industry with distribution agents and public decoration centralized procurement as the core expos Chengdu
gkxi5d2s4obdhp9x95,spanish motorcycle grand prix,sourced from predicthqcom  the spanish motorcycle grand prix is a motorcycling event that is part of the fim grand prix motorcycle racing season that takes place at circuito de jerezángel nieto outside jerez de la frontera in andalucia,sports,Europe/Madrid,-6.0338783,36.7092986,Cádiz,"-6.0338783,36.7092986",ES,180000.0,95,100.0,52658826.0,"Circuito de Jerez,Spanish Motorcycle Grand Prix",Madrid,3,54,spanish motorcycle grand prix sourced from predicthqcom  the spanish motorcycle grand prix is a motorcycling event that is part of the fim grand prix motorcycle racing season that takes place at circuito de jerezángel nieto outside jerez de la frontera in andalucia sports Madrid
fwjxwhclzrvug2tkxu,euroflora,sourced from predicthqcom,expos,Europe/Rome,8.934643,44.407701,Liguria,"8.934643,44.407701",IT,170000.0,95,100.0,26415640.0,Euroflora,Genoa,1,36,euroflora sourced from predicthqcom expos Genoa
tru8nzwfinslamfjhq,motogp gran premio de la republica argentina,sourced from predicthqcom  enjoy a weekend of worldclass motorcycle racing and exclusive access at the argentina motogp,sports,America/Argentina/Cordoba,-64.9177472,-27.5124043,Santiago del Estero Province,"-64.9177472,-27.5124043",AR,186000.0,95,100.0,8333132.0,"Autódromo Termas de Río Hondo,Argentine motorcycle Grand Prix",Buenos Aires,3,19,motogp gran premio de la republica argentina sourced from predicthqcom  enjoy a weekend of worldclass motorcycle racing and exclusive access at the argentina motogp sports Buenos Aires
33sbrujxldaptncbvm,miami music week,sourced from predicthqcom  miami music week is one of the worlds most recognized electronic music events every year hundreds of thousands of people from across the globe descend on miami during the last week of march as the city transforms itself into a dance music paradise the grand finale of mmw is known as the worlds premier electronic music festival ultra music festival,festivals,America/New_York,0.0,0.0,Florida,"-80.18608420142075,25.775010628764644",US,165000.0,94,100.0,14334398.0,Miami Music Week,Miami,2,58,miami music week sourced from predicthqcom  miami music week is one of the worlds most recognized electronic music events every year hundreds of thousands of people from across the globe descend on miami during the last week of march as the city transforms itself into a dance music paradise the grand finale of mmw is known as the worlds premier electronic music festival ultra music festival festivals Miami
3k4fr2jmmercqynjyj,ish frankfurt,sourced from predicthqcom  ish is the world leading trade fair for hvac  water building energy  bathroom design sustainable heating and airconditioning technology as well as intelligent home systems,expos,Europe/Berlin,8.643107,50.112336,Hessen,"8.643107,50.112336",DE,150000.0,94,100.0,21254662.0,"Messe Frankfurt,ISH Frankfurt",Frankfurt,1,35,ish frankfurt sourced from predicthqcom  ish is the world leading trade fair for hvac  water building energy  bathroom design sustainable heating and airconditioning technology as well as intelligent home systems expos Frankfurt
4eqkcrm8vawib9rcic,bassmaster classic outdoors expo,sourced from predicthqcom  the outdoors expo has grown into the largest consumer fishing show in the country with 200 exhibitors from around the world onsite selling a variety of merchandise for fishing hunting camping and more  an outdoor enthusiasts dream exhibition space fills quickly for this indemand show,expos,America/Chicago,-97.3276906,32.7496989,Texas,"-97.3276906,32.7496989",US,163914.0,94,100.0,35542285.0,Bassmaster Classic Outdoors Expo,Houston,1,41,bassmaster classic outdoors expo sourced from predicthqcom  the outdoors expo has grown into the largest consumer fishing show in the country with 200 exhibitors from around the world onsite selling a variety of merchandise for fishing hunting camping and more  an outdoor enthusiasts dream exhibition space fills quickly for this indemand show expos Houston
4dsfteikg5hktefcpd,foshan tanzhou ceramics exhibition,sourced from predicthqcom,expos,Asia/Shanghai,113.167446,22.951027,,"113.167446,22.951027",CN,150000.0,94,100.0,9364106.0,"Tanzhou Int'l. Exhib. Ctr. N. Exhib,Foshan Tanzhou Ceramics Exhibition",Unknown,1,95,foshan tanzhou ceramics exhibition sourced from predicthqcom expos Unknown
4evyeepa6zfonukivs,worldbex,sourced from predicthqcom  philippine world building  construction exposition,expos,Asia/Manila,120.9816948,14.5320782,Metro Manila,"120.9816948,14.5320782",PH,167800.0,94,98.0,11460050.0,Worldbex,Manila,1,55,worldbex sourced from predicthqcom  philippine world building  construction exposition expos Manila
57slcixvrt58ypddxs,brighton marathon weekend,sourced from predicthqcom  whether youre taking part in the brighton marathon bm10k or mini mile this is an exciting weekend for you and your friends and family enjoy an atmosphere like no other in this bustling vibrant and colorful city which welcomes thousands of spectators and the local community each year this is an event for everyone with something for all ages and abilities,sports,Europe/London,0.0,0.0,England,"-0.1429104894232911,50.82383104258137",GB,150000.0,94,100.0,14030846.0,"Preston Park,Brighton Marathon Weekend",London,3,49,brighton marathon weekend sourced from predicthqcom  whether youre taking part in the brighton marathon bm10k or mini mile this is an exciting weekend for you and your friends and family enjoy an atmosphere like no other in this bustling vibrant and colorful city which welcomes thousands of spectators and the local community each year this is an event for everyone with something for all ages and abilities sports London
5v48ikwwr5kqd5dsaq,nhne 2025  china international natural health  nutrition expo,sourced from predicthqcom,expos,Asia/Shanghai,113.357894,23.104038,Guang Dong Sheng,"113.357894,23.104038",CN,150000.0,94,100.0,17646235.0,Canton Fair Complex,Guangzhou,1,37,nhne 2025  china international natural health  nutrition expo sourced from predicthqcom expos Guangzhou
5jm4yhvtbhukha3u96,motogp 2025  british grand prix  practice 3,sourced from predicthqcom,sports,Europe/London,-1.0222627,52.0692192,England,"-1.0222627,52.0692192",GB,150000.0,94,100.0,13687992.0,"Aleix Espargaro,Ai Ogura,Francesco Bagnaia,Pedro Acosta,Marc Marquez,Fabio Quartararo,Luca Marini,Brad Binder,Marco Bezzecchi,Jack Miller,Maverick Vinales,Enea Bastianini,Miguel Oliveira,Somkiat Chantra,Fermin Aldeguer,Franco Morbidelli,Lorenzo Savadori,Joan Mir,Johann Zarco,Alex Marquez,Alex Rins,Fabio Di Giannantonio,Raul Fernandez,Silverstone Circuit",London,3,49,motogp 2025  british grand prix  practice 3 sourced from predicthqcom sports London
5tanbducv3qyauqui8,crufts,"sourced from predicthqcom  crufts which first began in 1891 is widely considered to be the most prestigious dog show in britain and the world

it started after a travelling salesman called charles cruft began visiting lots of different dog kennels and dog clubs in a bid to sell spratts dog biscuits",expos,Europe/London,-1.7211895,52.4512092,England,"-1.7211895,52.4512092",GB,160000.0,94,100.0,31820092.0,"National Exhibition Centre (NEC),Crufts",London,1,49,"crufts sourced from predicthqcom  crufts which first began in 1891 is widely considered to be the most prestigious dog show in britain and the world

it started after a travelling salesman called charles cruft began visiting lots of different dog kennels and dog clubs in a bid to sell spratts dog biscuits expos London"
5zmvfuufbxtkddkegd,springing the blues,sourced from predicthqcom  springing the blues is a major blues festival held annually in jacksonville beach florida,festivals,America/New_York,0.0,0.0,Florida,"-81.38952126281058,30.290592628061944",US,150000.0,94,100.0,11255722.0,"Seawalk Pavilion,Springing The Blues",Miami,2,58,springing the blues sourced from predicthqcom  springing the blues is a major blues festival held annually in jacksonville beach florida festivals Miami
6cnsfijf8akvwdcohx,newcastle united victory parade,"sourced from predicthqcom  tens of thousands of jubilant newcastle united fans filled the city streets to celebrate the teams carabao cup triumph over liverpool

the victory ended a 70year wait for a domestic trophy with black and white flooding the roads during a vibrant opentop bus parade",festivals,Europe/London,0.0,0.0,England,"-1.6155733196,54.9797690278",GB,150000.0,94,100.0,10261996.0,,London,2,49,"newcastle united victory parade sourced from predicthqcom  tens of thousands of jubilant newcastle united fans filled the city streets to celebrate the teams carabao cup triumph over liverpool

the victory ended a 70year wait for a domestic trophy with black and white flooding the roads during a vibrant opentop bus parade festivals London"
6feedw6jakzs2dsurf,kentucky derby,sourced from predicthqcom  the kentucky derby is unlike any other sporting event with an unparalleled history and tradition and its unique spectacle the kentucky derby has been described by forbes as one of the greatest bucketlist sporting events in america every year on the first saturday in may thousands of guests gather under the twin spires at churchill downs to create lifelong memories with their friends and family,sports,America/Kentucky/Louisville,-85.77003830000001,38.2029725,Kentucky,"-85.77003830000001,38.2029725",US,150000.0,94,100.0,103771178.0,"Churchill Downs,Kentucky Derby",Louisville,3,51,kentucky derby sourced from predicthqcom  the kentucky derby is unlike any other sporting event with an unparalleled history and tradition and its unique spectacle the kentucky derby has been described by forbes as one of the greatest bucketlist sporting events in america every year on the first saturday in may thousands of guests gather under the twin spires at churchill downs to create lifelong memories with their friends and family sports Louisville
6jdmqs3vwyqkb2j3h6,ultra music festival,sourced from predicthqcom  ultra music festival umf is an annual outdoor electronic music festival that takes place during march in miami florida united states,festivals,America/New_York,0.0,0.0,Florida,"-80.18608420142075,25.775010628764644",US,165000.0,94,100.0,14334311.0,"Bayfront Park,Ultra Music Festival",Miami,2,58,ultra music festival sourced from predicthqcom  ultra music festival umf is an annual outdoor electronic music festival that takes place during march in miami florida united states festivals Miami
78tn38serqe7eivhwf,moto2 2025  british grand prix 2025  race,sourced from predicthqcom,sports,Europe/London,-1.0222627,52.0692192,England,"-1.0222627,52.0692192",GB,150000.0,94,100.0,13687992.0,"Tony Arbolino,Joe Roberts,Albert Arenas,Marcos Ramirez,Jorge Navarro,Ayumu Sasaki,Celestino Vietti,Daniel Munoz,Ivan Ortola,Izan Guevara,Alonso Lopez,Jake Dixon,Yuki Kunii,Filip Salac,Aron Canet,Zonta van Den Goorbergh,Barry Baltus,Manuel Gonzalez,Sergio Garcia,Diogo Moreira,Mario Suryo Aji,Deniz Oncu,Daniel Holgado,David Alonso,Senna Agius,Silverstone Circuit",London,3,49,moto2 2025  british grand prix 2025  race sourced from predicthqcom sports London
7j92z2tqvgvwfenksq,vive latino,sourced from predicthqcom  vive latino is an annual music festival held in mexico city it is one of the most important music festivals in mexico featuring a great variety of artists,festivals,America/Mexico_City,-99.0956283,19.4051591,Ciudad de México,"-99.0956283,19.4051591",MX,160000.0,94,99.0,7217657.0,"Ginebras (ES),Meme Del Real,La Delio Valdez,Daniel Me Estás Matando,cKovi,Bostich & Fussible,drims,Nortec,RÜFÜS DU SOL,robot95,Usted Señalemelo,El Haragán y Compañía,Ginebras,Bostich,The Guapos,LosPetitFellas,VILMA PALMA,Dj Dodosound,El Haragan,Kikuo,División Minúscula,Nortec Collective,Él Mató a un Policía Motorizado,Iseo & Dodosound,Aterciopelados,Motel,Jay de la Cueva,Midnight Generation,Mon Laferte,Kany García,Los Concorde,León Benavente,Los Ángeles Azules,Scorpions,Victimas del Dr Cerebro,Alto Grado,Iseo,El Kuelgue,Los Planetas,El Gran Silencio,Clubz,Pressive,Los Esquizitos,Jesse Baez,Efecto Pasillo,Víctimas del Doctor Cerebro,Vilma Palma e Vampiros,El Cuarteto de Nos,Easykid,Molotov,Duncan Dhu,Mikel Izal,Robi Draco Rosa,Siddhartha,Sepultura,Porter,Caloncho,Little Jesus,Keane,Caifanes,Edén Muñoz,Dillom,Royal Republic,La Lupita,Arde Bogotá,Foster the People,Foro Sol,Vive Latino",Mexico City,2,57,vive latino sourced from predicthqcom  vive latino is an annual music festival held in mexico city it is one of the most important music festivals in mexico featuring a great variety of artists festivals Mexico City
7xvc3alqxynp3vp2bh,moto3 2025  british grand prix 2025  practice 3,sourced from predicthqcom,sports,Europe/London,-1.0222627,52.0692192,England,"-1.0222627,52.0692192",GB,150000.0,94,100.0,13687992.0,"Vicente Perez,Riccardo Rossi,Scott Ogden,Eddie O Shea,Angel Piqueras,David Munoz,Jacob Roulstone,Ruche Moodley,Cormac Buchanan,Guido Pini,Joel Kelso,Luca Lunetta,Alvaro Carpe,Stefano Nepa,Max Cook,David Almansa,Nicola Fabio Carraro,Valentin Perrone,Noah Dettwiler,Tatchakorn Buasri,Maximo Quiles,Jose Antonio Rueda,Ryusei Yamanaka,Joel Esteban,Taiyo Furusato,Dennis Foggia,Silverstone Circuit",London,3,49,moto3 2025  british grand prix 2025  practice 3 sourced from predicthqcom sports London
7zybeudorw4judws46,moto3 2025  british grand prix 2025  race,sourced from predicthqcom,sports,Europe/London,-1.0222627,52.0692192,England,"-1.0222627,52.0692192",GB,150000.0,94,100.0,13687992.0,"Vicente Perez,Riccardo Rossi,Scott Ogden,Eddie O Shea,Angel Piqueras,David Munoz,Jacob Roulstone,Ruche Moodley,Cormac Buchanan,Guido Pini,Joel Kelso,Luca Lunetta,Alvaro Carpe,Stefano Nepa,Max Cook,David Almansa,Nicola Fabio Carraro,Valentin Perrone,Noah Dettwiler,Tatchakorn Buasri,Maximo Quiles,Jose Antonio Rueda,Ryusei Yamanaka,Joel Esteban,Taiyo Furusato,Dennis Foggia,Silverstone Circuit",London,3,49,moto3 2025  british grand prix 2025  race sourced from predicthqcom sports London
8xnlzi8bapkpbgmdp7,formula 1 2025  japanese grand prix 2025  qualification,sourced from predicthqcom,sports,Asia/Tokyo,136.5389522,34.8455935,Mie-ken,"136.5389522,34.8455935",JP,155000.0,94,100.0,10488187.0,"Gabriel Bortoleto,Carlos Sainz Jr.,Lance Stroll,Lando Norris,Alexander Albon,Lewis Hamilton,Esteban Ocon,Oliver Bearman,Yuki Tsunoda,Liam Lawson,Andrea Kimi Antonelli,Isack Hadjar,Oscar Piastri,Max Verstappen,Pierre Gasly,Fernando Alonso,Nico Hulkenberg,Charles Leclerc,George Russell,Jack Doohan,Suzuka Circuit",Tsu,3,93,formula 1 2025  japanese grand prix 2025  qualification sourced from predicthqcom sports Tsu
8hugx8rbklp5e9ifsl,chinagrtae,sourced from predicthqcom  chinagrtae  china guangrao international rubber tire and auto parts exhibition is a highly esteemed expo event that showcases cuttingedge technologies and advancements in the field of agriculture and industry it serves as a platform for global manufacturers and industry professionals to collaborate exchange ideas and explore the latest trends and innovations,expos,Asia/Shanghai,118.464791,37.050866,Shan Dong Sheng,"118.464791,37.050866",CN,150000.0,94,100.0,15842324.0,"Guangrao International Exhibition Center,ChinaGRTAE",Qingdao,1,75,chinagrtae sourced from predicthqcom  chinagrtae  china guangrao international rubber tire and auto parts exhibition is a highly esteemed expo event that showcases cuttingedge technologies and advancements in the field of agriculture and industry it serves as a platform for global manufacturers and industry professionals to collaborate exchange ideas and explore the latest trends and innovations expos Qingdao
9faszkqndewdwvlzyg,weather guard truck race nascar craftsman truck series,sourced from predicthqcom,sports,America/New_York,-82.25696669999999,36.515694,Tennessee,"-82.25696669999999,36.515694",US,155000.0,94,100.0,13638975.0,Bristol Motor Speedway,Nashville,3,63,weather guard truck race nascar craftsman truck series sourced from predicthqcom sports Nashville
aw9ky5yhy8jc4gzigr,china international machine tool show,sourced from predicthqcom,expos,Asia/Shanghai,116.549281,40.071208,Bei Jing Shi,"116.549281,40.071208",CN,154957.0,94,100.0,23433734.0,"China International Exhibition Center Shunyi,China International Machine Tool Show",Beijing,1,9,china international machine tool show sourced from predicthqcom expos Beijing
ay3c8mvaykhitpzzqg,nascar cup series  food city 500,sourced from predicthqcom,sports,America/New_York,-82.25696669999999,36.515694,Tennessee,"-82.25696669999999,36.515694",US,155000.0,94,100.0,13638975.0,Bristol Motor Speedway,Nashville,3,63,nascar cup series  food city 500 sourced from predicthqcom sports Nashville
adz5b7jw6xvx66vczf,sharjah childrens reading festival,sourced from predicthqcom  the sharjah childrens reading festival is an immersive and engaging event that celebrates the joy of reading and fosters a love for literature among children and families this enchanting festival offers a wide range of activities including storytelling sessions workshops performances and book signings by prominent authors and illustrators,expos,Asia/Dubai,55.3705121,25.311308,Sharjah,"55.3705121,25.311308",AE,157381.0,94,98.0,15932595.0,"Expo Centre Sharjah,Sharjah Childrens Reading Festival",Dubai,1,32,sharjah childrens reading festival sourced from predicthqcom  the sharjah childrens reading festival is an immersive and engaging event that celebrates the joy of reading and fosters a love for literature among children and families this enchanting festival offers a wide range of activities including storytelling sessions workshops performances and book signings by prominent authors and illustrators expos Dubai
bmnbu9rwetus3sze9c,formula 1 2025  japanese grand prix 2025  race,sourced from predicthqcom,sports,Asia/Tokyo,136.5389522,34.8455935,Mie-ken,"136.5389522,34.8455935",JP,155000.0,94,100.0,10488187.0,"Gabriel Bortoleto,Carlos Sainz Jr.,Lance Stroll,Lando Norris,Esteban Ocon,Alexander Albon,Lewis Hamilton,Oliver Bearman,Yuki Tsunoda,Liam Lawson,Andrea Kimi Antonelli,Isack Hadjar,Oscar Piastri,Fernando Alonso,Nico Hulkenberg,Charles Leclerc,George Russell,Jack Doohan,Max Verstappen,Pierre Gasly,Suzuka Circuit",Tsu,3,93,formula 1 2025  japanese grand prix 2025  race sourced from predicthqcom sports Tsu
biedp8jhsimkuup2ns,chelsea flower show,sourced from predicthqcom  the worlds greatest flower show returned to spring with stunning garden designs gorgeous floral displays and endless shopping,expos,Europe/London,-0.1568100441,51.487918042,Greater London,"-0.1568100441,51.487918042",GB,157000.0,94,100.0,39705289.0,"Royal Hospital Chelsea,Chelsea Flower Show",London,1,49,chelsea flower show sourced from predicthqcom  the worlds greatest flower show returned to spring with stunning garden designs gorgeous floral displays and endless shopping expos London
bxpd2zpwgghimmqgbp,towsontown spring festival,sourced from predicthqcom,festivals,America/New_York,0.0,0.0,Maryland,"-76.60689140638084,39.40036841071481",US,150000.0,94,100.0,8928498.0,,Baltimore,2,6,towsontown spring festival sourced from predicthqcom festivals Baltimore
cvhjhrlntovtchcjqe,nascar truck series  weather guard truck race,sourced from predicthqcom,sports,America/New_York,-82.25696669999999,36.515694,Tennessee,"-82.25696669999999,36.515694",US,155000.0,94,100.0,13638975.0,Bristol Motor Speedway,Nashville,3,63,nascar truck series  weather guard truck race sourced from predicthqcom sports Nashville
d6lztupvai2p6eenmy,miami beach pride,sourced from predicthqcom  miami beach pride brings together members of the lesbian gay bisexual and transgender community their friends allies and supporters in celebration of the unique spirit and culture of the lgbtq community,festivals,America/New_York,0.0,0.0,Florida,"-80.12976638859163,25.780807293210398",US,150000.0,94,100.0,13031271.0,Miami Beach Gay Pride,Miami,2,58,miami beach pride sourced from predicthqcom  miami beach pride brings together members of the lesbian gay bisexual and transgender community their friends allies and supporters in celebration of the unique spirit and culture of the lgbtq community festivals Miami
dmckxkxfadqsbfumn6,motogp 2025  british grand prix  race,sourced from predicthqcom,sports,Europe/London,-1.0222627,52.0692192,England,"-1.0222627,52.0692192",GB,150000.0,94,100.0,13687992.0,"Aleix Espargaro,Francesco Bagnaia,Pedro Acosta,Marc Marquez,Fabio Quartararo,Luca Marini,Brad Binder,Marco Bezzecchi,Jack Miller,Maverick Vinales,Enea Bastianini,Miguel Oliveira,Somkiat Chantra,Fermin Aldeguer,Franco Morbidelli,Johann Zarco,Alex Marquez,Alex Rins,Fabio Di Giannantonio,Raul Fernandez,Lorenzo Savadori,Joan Mir,Silverstone Circuit",London,3,49,motogp 2025  british grand prix  race sourced from predicthqcom sports London
ddi4nst8v2yffve9wv,valspar championship,sourced from predicthqcom  the valspar championship is a professional golf tournament on the pga tour played annually on the copperhead course at innisbrook resort and golf club in palm harbor north of st petersburg florida,sports,America/New_York,-82.753524,28.1108728,Florida,"-82.753524,28.1108728",US,150000.0,94,100.0,13685095.0,"Innisbrook, A Salamander Golf & Spa Resort,Valspar Championship",Miami,3,58,valspar championship sourced from predicthqcom  the valspar championship is a professional golf tournament on the pga tour played annually on the copperhead course at innisbrook resort and golf club in palm harbor north of st petersburg florida sports Miami
f64hdsmmhg3x3dsebc,stone,sourced from predicthqcom,expos,Asia/Shanghai,118.183489,24.467182,,"118.183489,24.467182",CN,150300.0,94,100.0,15132079.0,Xiamen international Conference & Exhibition Center,Unknown,1,95,stone sourced from predicthqcom expos Unknown
fbjflobtpcwmfdqmvf,aalborg carnival,sourced from predicthqcom  aalborg carnival is an annual cultural event carnival in the city of aalborg which is the fourth largest city in denmark the carnival in aalborg is advertised as the biggest carnival in northern europe with thousands of spectators watching the magnificent wave of colours and fantasy along the parade route the aalborg carnival stands for a week and has 3 main carnival events the grand parade battle of carnival bands and childrens carnival,festivals,Europe/Copenhagen,9.9130852,57.0414481,,"9.9130852,57.0414481",DK,160000.0,94,100.0,14894753.0,"Aalborg Karneval, Kildeparken,Aalborg Carnival",Unknown,2,95,aalborg carnival sourced from predicthqcom  aalborg carnival is an annual cultural event carnival in the city of aalborg which is the fourth largest city in denmark the carnival in aalborg is advertised as the biggest carnival in northern europe with thousands of spectators watching the magnificent wave of colours and fantasy along the parade route the aalborg carnival stands for a week and has 3 main carnival events the grand parade battle of carnival bands and childrens carnival festivals Unknown
fgxzzexbw7sknxjgrf,wooden shoe tulip festival,sourced from predicthqcom  wooden shoe tulip fest is one of the most popular spring destinations in the state of oregon the event features fresh flowers the wine tasting room daily activities such as wooden shoe making demonstrations steam tractor demonstrations and a craft market place kids can also enjoy the special kids play area with pony rides jump tents bungee jumper a rock wall and a zip line,festivals,America/Los_Angeles,0.0,0.0,Oregon,"-122.74910240031218,45.118864686479434",US,150000.0,94,100.0,11280031.0,Wooden Shoe Tulip Fest,Portland,2,73,wooden shoe tulip festival sourced from predicthqcom  wooden shoe tulip fest is one of the most popular spring destinations in the state of oregon the event features fresh flowers the wine tasting room daily activities such as wooden shoe making demonstrations steam tractor demonstrations and a craft market place kids can also enjoy the special kids play area with pony rides jump tents bungee jumper a rock wall and a zip line festivals Portland
fw8frod8uajyrpwbqf,saudi arabia grand prix,sourced from predicthqcom  the saudi arabian grand prix is a formula one motor racing event the inaugural edition of the race was held in jeddah in 2021,sports,Asia/Riyadh,39.104444,21.631944,Makkah Province,"39.104444,21.631944",SA,150000.0,94,100.0,58484329.0,"Jeddah Street Circuit,Saudi Arabia Grand Prix",Jeddah,3,44,saudi arabia grand prix sourced from predicthqcom  the saudi arabian grand prix is a formula one motor racing event the inaugural edition of the race was held in jeddah in 2021 sports Jeddah
fymkd6ybuhwyh8tzwc,ids 2025  international dental show,sourced from predicthqcom  taking place every two years international dental show ids in cologne is the top event for the international dental sector ids presents the entire range of products available on the international dental market it brings together all relevant target groups from the worldwide dental sector,expos,Europe/Berlin,6.9804047,50.9466048,Nordrhein-Westfalen,"6.9804047,50.9466048",DE,160000.0,94,100.0,23150604.0,"Rpc, Koelnmesse,International Dental Show",Berlin,1,12,ids 2025  international dental show sourced from predicthqcom  taking place every two years international dental show ids in cologne is the top event for the international dental sector ids presents the entire range of products available on the international dental market it brings together all relevant target groups from the worldwide dental sector expos Berlin
fte7nmnfwfy3prsztz,territory days,sourced from predicthqcom  territory days is an annual street festival held in old colorado city colorado celebrating the areas rich wild west history the event features live music historical reenactments local craft vendors and familyfriendly activities attracting thousands of visitors over memorial day weekend with its lively atmosphere and variety of attractions territory days is a beloved tradition that offers a fun and immersive experience in colorados pioneer heritage,festivals,America/Denver,0.0,0.0,Colorado,"-104.86362533408504,38.84786641286017",US,150000.0,94,100.0,11586073.0,Territory Days,Denver,2,29,territory days sourced from predicthqcom  territory days is an annual street festival held in old colorado city colorado celebrating the areas rich wild west history the event features live music historical reenactments local craft vendors and familyfriendly activities attracting thousands of visitors over memorial day weekend with its lively atmosphere and variety of attractions territory days is a beloved tradition that offers a fun and immersive experience in colorados pioneer heritage festivals Denver
fumyflwxddtdfkgafl,queima das fitas,sourced from predicthqcom  the queima das fitas is a traditional festivity of the students of some portuguese universities organized originally by the students of the university of coimbra the event celebrates the end of graduation courses symbolized by the ritual burning of the ribbons representing each faculty of the university a series of concerts and performances are held which includes a parade of the university students sport activities gala ball and many other public events and traditions such as the historical nighttime student fado serenade serenata monumental which happens in the stairs of the old cathedral of coimbra for a crowd of thousands of students tourists and other spectators,festivals,Europe/Lisbon,-8.6848408,41.1730937,Porto,"-8.6848408,41.1730937",PT,150000.0,94,100.0,6630834.0,Queima das Fitas,Lisbon,2,47,queima das fitas sourced from predicthqcom  the queima das fitas is a traditional festivity of the students of some portuguese universities organized originally by the students of the university of coimbra the event celebrates the end of graduation courses symbolized by the ritual burning of the ribbons representing each faculty of the university a series of concerts and performances are held which includes a parade of the university students sport activities gala ball and many other public events and traditions such as the historical nighttime student fado serenade serenata monumental which happens in the stairs of the old cathedral of coimbra for a crowd of thousands of students tourists and other spectators festivals Lisbon
gn7kczjyatw6ehjm8s,delray affair,sourced from predicthqcom  the delray affair is the largest arts  craft festival in the southeast united states the event takes place along the palm tree lined downtown streets of delray,festivals,America/New_York,0.0,0.0,Florida,"-80.06864634999998,26.461687199999997",US,150000.0,94,100.0,13760910.0,Delray Affair,Miami,2,58,delray affair sourced from predicthqcom  the delray affair is the largest arts  craft festival in the southeast united states the event takes place along the palm tree lined downtown streets of delray festivals Miami
gqtx5ejngb4xhnub8q,main street fest,sourced from predicthqcom  main street fest is a threeday familyfriendly beer festival coinciding with american craft brew week and is one of the biggest in usa the craft brews tasting will come along with music food and more,festivals,America/Chicago,0.0,0.0,Texas,"-97.07837500642226,32.93683907245877",US,150000.0,94,100.0,12087301.0,Main Street Fest,Houston,2,41,main street fest sourced from predicthqcom  main street fest is a threeday familyfriendly beer festival coinciding with american craft brew week and is one of the biggest in usa the craft brews tasting will come along with music food and more festivals Houston
gwsgebh5qqmujkv4mh,randox grand national,sourced from predicthqcom  the randox grand national is more than just the worlds greatest steeplechase this is horse racing with a difference a national institution with a global audience an event of grand proportions this event guarantees unmissable sport and entertainment to leave you with unforgettable memories,sports,Europe/London,-2.9541696,53.4734766,England,"-2.9541696,53.4734766",GB,150000.0,94,100.0,75018161.0,"Aintree Racecourse,Randox Grand National",London,3,49,randox grand national sourced from predicthqcom  the randox grand national is more than just the worlds greatest steeplechase this is horse racing with a difference a national institution with a global audience an event of grand proportions this event guarantees unmissable sport and entertainment to leave you with unforgettable memories sports London
h6s8thbu6cet9gwh7v,san joaquin asparagus festival,sourced from predicthqcom  the san joaquin asparagus festival draws a considerable amount of visitors in the spring that come together to enjoy the fun savor the food and catch up with old friends all while making new memories join us back at the san joaquin county fairgrounds,festivals,America/Los_Angeles,0.0,0.0,California,"-121.26706049686705,37.939070576368145",US,150000.0,94,100.0,11117690.0,"San Joaquin County Fairgrounds,San Joaquin Asparagus Festival",Los Angeles,2,50,san joaquin asparagus festival sourced from predicthqcom  the san joaquin asparagus festival draws a considerable amount of visitors in the spring that come together to enjoy the fun savor the food and catch up with old friends all while making new memories join us back at the san joaquin county fairgrounds festivals Los Angeles
hjkoeghoyc384kcifo,la times festival of books,sourced from predicthqcom  the los angeles times festival of books is a free public festival celebrating the written word it is the largest book festival in the united states the festival began in 1996 and is held on the penultimate weekend of april hosted by the university of southern california it features vendors authors and publishers among the events are panel discussions storytelling and performances for children as well as the los angeles times book prize ceremony,festivals,America/Los_Angeles,0.0,0.0,California,"-118.28441849939502,34.02078682086941",US,155000.0,94,100.0,13566209.0,"University of Southern California,LA Times Festival of Books",Los Angeles,2,50,la times festival of books sourced from predicthqcom  the los angeles times festival of books is a free public festival celebrating the written word it is the largest book festival in the united states the festival began in 1996 and is held on the penultimate weekend of april hosted by the university of southern california it features vendors authors and publishers among the events are panel discussions storytelling and performances for children as well as the los angeles times book prize ceremony festivals Los Angeles
67zwpfwzdejshvhsk9,moto3 2025  grand prix of the americas 2025  qualifying,sourced from predicthqcom,sports,America/Chicago,-97.63585109999995,30.1345808,Texas,"-97.63585109999997,30.1345808",US,120000.0,92,100.0,11134829.0,"Scott Ogden,Riccardo Rossi,Adrian Fernandez,Adrian Cruces,Cormac Buchanan,Guido Pini,Ruche Moodley,Eddie O Shea,Jakob Rosenthaler,Angel Piqueras,David Munoz,Jacob Roulstone,Luca Lunetta,Matteo Bertelle,Joel Kelso,Alvaro Carpe,David Almansa,Stefano Nepa,Nicola Fabio Carraro,Valentin Perrone,Tatchakorn Buasri,Maximo Quiles,Jose Antonio Rueda,Ryusei Yamanaka,Taiyo Furusato,Dennis Foggia,Circuit of the Americas",Houston,3,41,moto3 2025  grand prix of the americas 2025  qualifying sourced from predicthqcom sports Houston
68spqmab9y9ckn69je,indian premier league 2025 ipl  gujarat titans vs sunrisers hyderabad,sourced from predicthqcom,sports,Asia/Kolkata,72.5975112,23.0917101,Gujarat,"72.5975112,23.0917101",IN,132000.0,92,100.0,3161998.0,Narendra Modi Stadium,Ahmedabad,3,2,indian premier league 2025 ipl  gujarat titans vs sunrisers hyderabad sourced from predicthqcom sports Ahmedabad
69jlfxwk2rjm4qlogu,coachella valley music and arts festival  weekend 1,sourced from predicthqcom  the coachella valley music and arts festival is an annual music and arts festival held at the empire polo club in indio california in the coachella valley in the colorado desert it was cofounded by paul tollett and rick van santen in 1999 and is organized by goldenvoice a subsidiary of aeg presents,festivals,America/Los_Angeles,0.0,0.0,California,"-116.23830271119776,33.68222685812418",US,125000.0,92,100.0,9896448.0,"Empire Polo Club,Coachella Valley Music and Arts Festival",Los Angeles,2,50,coachella valley music and arts festival  weekend 1 sourced from predicthqcom  the coachella valley music and arts festival is an annual music and arts festival held at the empire polo club in indio california in the coachella valley in the colorado desert it was cofounded by paul tollett and rick van santen in 1999 and is organized by goldenvoice a subsidiary of aeg presents festivals Los Angeles
6lavcjqzuklvncctnt,kingsland festival,sourced from predicthqcom  kingsland festival is the largest music festival during kings day and not only that but it is also the biggest oneday music festival in the netherlands,festivals,Europe/Amsterdam,4.8886211,52.3411868,Noord-Holland,"4.8886211,52.3411868",NL,125000.0,92,100.0,10895899.0,"Amsterdam RAI,Kingsland Festival - Amsterdam",Amsterdam,2,4,kingsland festival sourced from predicthqcom  kingsland festival is the largest music festival during kings day and not only that but it is also the biggest oneday music festival in the netherlands festivals Amsterdam
6myrdvgvunyalfcyqh,china cycle,sourced from predicthqcom,expos,Asia/Shanghai,121.564912,31.208904,Shanghai,"121.564912,31.208904",CN,120100.0,92,93.0,14864642.0,"Shanghai New International Expo Center,China Cycle",Shanghai,1,84,china cycle sourced from predicthqcom expos Shanghai
6frpcwfqah8xeybahz,moto3 2025  grand prix of the americas 2025  practice 3,sourced from predicthqcom,sports,America/Chicago,-97.63585109999995,30.1345808,Texas,"-97.63585109999997,30.1345808",US,120000.0,92,100.0,11134829.0,"Scott Ogden,Riccardo Rossi,Adrian Fernandez,Adrian Cruces,Cormac Buchanan,Guido Pini,Ruche Moodley,Eddie O Shea,Jakob Rosenthaler,Angel Piqueras,David Munoz,Jacob Roulstone,Luca Lunetta,Matteo Bertelle,Joel Kelso,Alvaro Carpe,David Almansa,Stefano Nepa,Nicola Fabio Carraro,Valentin Perrone,Tatchakorn Buasri,Maximo Quiles,Jose Antonio Rueda,Taiyo Furusato,Dennis Foggia,Ryusei Yamanaka,Circuit of the Americas",Houston,3,41,moto3 2025  grand prix of the americas 2025  practice 3 sourced from predicthqcom sports Houston
6hpxzcsxscgdbdchta,hannover messe,sourced from predicthqcom  hannover messe is the worlds leading fair for promoting industrial technologies worldwide the event involves all core technologies and core areas in industries ranging from research and development to the mobility of technologies the event involves a wide variety of synergies offered by professionals and experts the event is considered the industrys global hotspot this event shows products from automotive electronics  electrical goods industrial products hand machine  garden tools plant machinery  equipment manufacturing fabrication repair  maintenance,expos,Europe/Berlin,9.804915,52.3229484,Lower Saxony,"9.804915,52.3229484",DE,130000.0,92,100.0,17168782.0,Hannover Messe,Hanover,1,39,hannover messe sourced from predicthqcom  hannover messe is the worlds leading fair for promoting industrial technologies worldwide the event involves all core technologies and core areas in industries ranging from research and development to the mobility of technologies the event involves a wide variety of synergies offered by professionals and experts the event is considered the industrys global hotspot this event shows products from automotive electronics  electrical goods industrial products hand machine  garden tools plant machinery  equipment manufacturing fabrication repair  maintenance expos Hanover
6mgydpe3yqp2zjjxr4,chic spring,sourced from predicthqcom,expos,Asia/Shanghai,121.306102,31.190706,Shang Hai Shi,"121.306102,31.190706",CN,120000.0,92,100.0,15306350.0,,Shanghai,1,84,chic spring sourced from predicthqcom expos Shanghai
75x3jecuvwd9283su9,coachella valley music and arts festival  weekend 2,sourced from predicthqcom  the coachella valley music and arts festival is an annual music and arts festival held at the empire polo club in indio california in the coachella valley in the colorado desert it was cofounded by paul tollett and rick van santen in 1999 and is organized by goldenvoice a subsidiary of aeg presents,festivals,America/Los_Angeles,0.0,0.0,California,"-116.23830271119776,33.68222685812418",US,125000.0,92,100.0,9896448.0,"Empire Polo Club,Coachella Valley Music and Arts Festival",Los Angeles,2,50,coachella valley music and arts festival  weekend 2 sourced from predicthqcom  the coachella valley music and arts festival is an annual music and arts festival held at the empire polo club in indio california in the coachella valley in the colorado desert it was cofounded by paul tollett and rick van santen in 1999 and is organized by goldenvoice a subsidiary of aeg presents festivals Los Angeles
77pjczwna4mskc85eg,ccf 2025  china shanghai international consumer goods fair  modern lifestyle expo spring,sourced from predicthqcom  ccf china consumer goods fair is the largest onestop purchasing platform for all categories of consumer goods it also leads and demonstrates the market trends in the general merchandise retail industry,expos,Asia/Shanghai,121.564912,31.208904,Shanghai,"121.564912,31.208904",CN,120000.0,92,93.0,15306350.0,"Shanghai New International Expo Center,CCF Shanghai International Consumer Goods Fair & Modern Lifestyle Expo",Shanghai,1,84,ccf 2025  china shanghai international consumer goods fair  modern lifestyle expo spring sourced from predicthqcom  ccf china consumer goods fair is the largest onestop purchasing platform for all categories of consumer goods it also leads and demonstrates the market trends in the general merchandise retail industry expos Shanghai
7femtdjcpq6sgpuvd4,indian premier league 2025 ipl  punjab kings vs gujarat titans,sourced from predicthqcom,sports,Asia/Kolkata,72.5975112,23.0917101,Gujarat,"72.5975112,23.0917101",IN,132000.0,92,100.0,3161998.0,Narendra Modi Stadium,Ahmedabad,3,2,indian premier league 2025 ipl  punjab kings vs gujarat titans sourced from predicthqcom sports Ahmedabad
7nxampxncsm9piqnog,formula 1 2025  chinese grand prix 2025  race,sourced from predicthqcom,sports,Asia/Shanghai,121.221638,31.33949900000001,Shang Hai Shi,"121.221638,31.33949900000001",CN,130000.0,92,100.0,7476879.0,"Gabriel Bortoleto,Carlos Sainz Jr.,Lance Stroll,Lando Norris,Alexander Albon,Lewis Hamilton,Esteban Ocon,Oliver Bearman,Yuki Tsunoda,Liam Lawson,Andrea Kimi Antonelli,Isack Hadjar,Oscar Piastri,Max Verstappen,Pierre Gasly,Fernando Alonso,Nico Hulkenberg,Charles Leclerc,George Russell,Jack Doohan,Shanghai International Circuit",Shanghai,3,84,formula 1 2025  chinese grand prix 2025  race sourced from predicthqcom sports Shanghai
7zenygvjbk8fb7bdma,beijing international natural gas technology  equipment exhibition,sourced from predicthqcom,expos,Asia/Shanghai,116.549281,40.071208,Bei Jing Shi,"116.549281,40.071208",CN,123000.0,92,100.0,19339492.0,"China International Exhibition Center Shunyi,Beijing International Natural Gas Technology & Equipment Exhibition",Beijing,1,9,beijing international natural gas technology  equipment exhibition sourced from predicthqcom expos Beijing
7ch4swqqprrr2c6i7b,shanghai hospitality design  supplies expo,sourced from predicthqcom,expos,Asia/Shanghai,121.564912,31.208904,Shanghai,"121.564912,31.208904",CN,121400.0,92,93.0,12958319.0,"Shanghai New International Expo Center,Shanghai Hospitality Design & Supplies Expo",Shanghai,1,84,shanghai hospitality design  supplies expo sourced from predicthqcom expos Shanghai
7iptfsmr7ypvw3xjex,home furnishing expo shenzhen,sourced from predicthqcom,expos,Asia/Shanghai,114.05701299999998,22.532866,Guangdong Sheng,"114.05701299999998,22.532866",CN,120000.0,92,87.0,17563467.0,"Shenzhen Convention & Exhibition Center,Home Furnishing Expo Shenzhen",Guangzhou,1,37,home furnishing expo shenzhen sourced from predicthqcom expos Guangzhou
7msjffyzwtnlvpscgu,motogp 2025  grand prix of the americas  practice 1,sourced from predicthqcom,sports,America/Chicago,-97.63585109999995,30.1345808,Texas,"-97.63585109999997,30.1345808",US,120000.0,92,100.0,11134829.0,"Francesco Bagnaia,Pedro Acosta,Ai Ogura,Augusto Fernandez,Marc Marquez,Jack Miller,Maverick Vinales,Marco Bezzecchi,Fabio Quartararo,Luca Marini,Brad Binder,Enea Bastianini,Somkiat Chantra,Fermin Aldeguer,Franco Morbidelli,Lorenzo Savadori,Joan Mir,Johann Zarco,Alex Marquez,Alex Rins,Fabio Di Giannantonio,Raul Fernandez,Circuit of the Americas",Houston,3,41,motogp 2025  grand prix of the americas  practice 1 sourced from predicthqcom sports Houston
7shjj7yxjco3v55shn,sydney comedy festival,sourced from predicthqcom  the sydney comedy festival is sydneys biggest annual comedy event every april and may over 250 of the best comedians from australia and beyond take to stages across sydney for a massive month of comedy followed by a national showcase tour from may to december,festivals,Australia/Sydney,151.2092955,-33.8688197,New South Wales,"151.2092955,-33.8688197",AU,120000.0,92,100.0,9985171.0,Sydney Comedy Festival,Sydney,2,86,sydney comedy festival sourced from predicthqcom  the sydney comedy festival is sydneys biggest annual comedy event every april and may over 250 of the best comedians from australia and beyond take to stages across sydney for a massive month of comedy followed by a national showcase tour from may to december festivals Sydney
7vt7c3pl4wccok7agf,the devon horse show  country fair,sourced from predicthqcom  the devon horse show and country fair is the oldest and largest outdoor multibreed horse show in the united states and so much more the fairgrounds are filled with boutique shopping unique food an art gallery and an expansive midway featuring a ferris wheel carousel and games for children of all ages,expos,America/New_York,-75.4202228,40.0457889,Pennsylvania,"-75.4202228,40.0457889",US,125000.0,92,100.0,23417639.0,The Devon Horse Show & Country Fair,Philadelphia,1,71,the devon horse show  country fair sourced from predicthqcom  the devon horse show and country fair is the oldest and largest outdoor multibreed horse show in the united states and so much more the fairgrounds are filled with boutique shopping unique food an art gallery and an expansive midway featuring a ferris wheel carousel and games for children of all ages expos Philadelphia
7zjdnrjnqbi7mvpl9w,bafici,sourced from predicthqcom  the buenos aires international festival of independent film is a 11day movie festival showing some of the worlds best independent cinema in theaters across the city,festivals,America/Argentina/Buenos_Aires,-58.3815591,-34.6036844,Ciudad Autónoma de Buenos Aires,"-58.3815591,-34.6036844",AR,120000.0,92,95.0,5596673.0,BAFICI,Buenos Aires,2,19,bafici sourced from predicthqcom  the buenos aires international festival of independent film is a 11day movie festival showing some of the worlds best independent cinema in theaters across the city festivals Buenos Aires
82bym6rfkpufpzu9ww,expo lighting,sourced from predicthqcom,expos,Asia/Shanghai,121.564912,31.208904,Shanghai,"121.564912,31.208904",CN,120000.0,92,93.0,12808882.0,"Shanghai New International Expo Center,Expo Lighting",Shanghai,1,84,expo lighting sourced from predicthqcom expos Shanghai
83pc9ebif6memcfvyh,moto3 2025  grand prix of the americas 2025  race,sourced from predicthqcom,sports,America/Chicago,-97.63585109999995,30.1345808,Texas,"-97.63585109999997,30.1345808",US,120000.0,92,100.0,11134829.0,"Scott Ogden,Riccardo Rossi,Adrian Fernandez,Adrian Cruces,Cormac Buchanan,Guido Pini,Ruche Moodley,Eddie O Shea,Jakob Rosenthaler,Angel Piqueras,David Munoz,Jacob Roulstone,Luca Lunetta,Matteo Bertelle,Joel Kelso,Alvaro Carpe,David Almansa,Stefano Nepa,Nicola Fabio Carraro,Valentin Perrone,Tatchakorn Buasri,Maximo Quiles,Jose Antonio Rueda,Ryusei Yamanaka,Taiyo Furusato,Dennis Foggia,Circuit of the Americas",Houston,3,41,moto3 2025  grand prix of the americas 2025  race sourced from predicthqcom sports Houston
8tf8syz4xatyshshcx,formula 1 2025  chinese grand prix 2025  qualification,sourced from predicthqcom,sports,Asia/Shanghai,121.221638,31.33949900000001,Shang Hai Shi,"121.221638,31.33949900000001",CN,130000.0,92,100.0,7476879.0,"Gabriel Bortoleto,Carlos Sainz Jr.,Lance Stroll,Lando Norris,Esteban Ocon,Alexander Albon,Lewis Hamilton,Oliver Bearman,Yuki Tsunoda,Liam Lawson,Andrea Kimi Antonelli,Isack Hadjar,Oscar Piastri,Fernando Alonso,Nico Hulkenberg,Charles Leclerc,George Russell,Jack Doohan,Max Verstappen,Pierre Gasly,Shanghai International Circuit",Shanghai,3,84,formula 1 2025  chinese grand prix 2025  qualification sourced from predicthqcom sports Shanghai
9tchhwjdbvxksrvqan,hanover trade fair,sourced from predicthqcom  the hannover messe hanover fair is the worlds leading industrial technology trade show held annually in hannover germany established in 1947 it has evolved into a premier global platform for showcasing innovations across the entire industrial value chainfrom automation and energy systems to digital ecosystems and advanced manufacturing technologies,expos,Europe/Berlin,9.804915,52.322948,Lower Saxony,"9.804915,52.322948",DE,127000.0,92,100.0,16772576.0,Hannover Messe,Hanover,1,39,hanover trade fair sourced from predicthqcom  the hannover messe hanover fair is the worlds leading industrial technology trade show held annually in hannover germany established in 1947 it has evolved into a premier global platform for showcasing innovations across the entire industrial value chainfrom automation and energy systems to digital ecosystems and advanced manufacturing technologies expos Hanover
9znqfyvmqrzzfgxrhq,main street festival,sourced from predicthqcom,festivals,America/Chicago,0.0,0.0,Tennessee,"-86.86895336322951,35.925191883268965",US,120000.0,92,100.0,8340829.0,,Nashville,2,63,main street festival sourced from predicthqcom festivals Nashville
a442zi7o5cuneqb9bf,hong kong rugby sevens,"sourced from predicthqcom  what is the hong kong sevens to rugby fans its worldclass action to the costumed stands its the citys favourite festival to us its a celebration of the sport we love and the place we call home

the cathayhsbc hong kong sevens is a magnet for global rugby talent and thousands of fans ready for action this year were keeping the best traditions and their magic alive while raising the bar same but different

cheer with the crowd as top teams from across the world battle it out on the hsbc svns circuit don your wildest costume and belt out the biggest bangers  well catch you pitchside",sports,Asia/Hong_Kong,114.2006443,22.3358064,Kowloon,"114.2006443,22.3358064",HK,120000.0,92,85.0,58279686.0,"Kai Tak Sports Park,World Rugby Sevens Series",Hong Kong,3,40,"hong kong rugby sevens sourced from predicthqcom  what is the hong kong sevens to rugby fans its worldclass action to the costumed stands its the citys favourite festival to us its a celebration of the sport we love and the place we call home

the cathayhsbc hong kong sevens is a magnet for global rugby talent and thousands of fans ready for action this year were keeping the best traditions and their magic alive while raising the bar same but different

cheer with the crowd as top teams from across the world battle it out on the hsbc svns circuit don your wildest costume and belt out the biggest bangers  well catch you pitchside sports Hong Kong"
a8v9jxqborirzskjt7,fibo global fitness 2025,sourced from predicthqcom  fibo is the worlds leading trade show for fitness wellness and health held in cologne,expos,Europe/Berlin,6.9804047,50.9466048,Nordrhein-Westfalen,"6.9804047,50.9466048",DE,129668.0,92,100.0,18981667.0,FIBO Global Fitness,Berlin,1,12,fibo global fitness 2025 sourced from predicthqcom  fibo is the worlds leading trade show for fitness wellness and health held in cologne expos Berlin
ab2zsbvp29y7pf3tfa,digital marketing expo spring,sourced from predicthqcom,expos,Asia/Tokyo,139.7942416,35.62982,Tōkyō-to,"139.7942416,35.62982",JP,130000.0,92,100.0,17793904.0,"Tokyo Big Sight,Digital Marketing Expo Spring",Tokyo,1,91,digital marketing expo spring sourced from predicthqcom expos Tokyo
aglpshsuvdnjylef27,hotel plus,sourced from predicthqcom  hotel  shop plus is the unique trade platform catering to developers investors hoteliers operators and designers in hospitality and commercial space market in china and across asia the annual mega event gathers leading suppliers from construction and operation sector under one roof to present their latest products services and innovative developments for hotels restaurants shopping malls and all commercial facilities,expos,Asia/Shanghai,121.564912,31.208904,Shanghai,"121.564912,31.208904",CN,124505.0,92,93.0,13773800.0,"Shanghai New International Expo Center,Hotel Plus",Shanghai,1,84,hotel plus sourced from predicthqcom  hotel  shop plus is the unique trade platform catering to developers investors hoteliers operators and designers in hospitality and commercial space market in china and across asia the annual mega event gathers leading suppliers from construction and operation sector under one roof to present their latest products services and innovative developments for hotels restaurants shopping malls and all commercial facilities expos Shanghai
alr2vczke7qmc8wekj,china clean expo shanghai,sourced from predicthqcom,expos,Asia/Shanghai,121.564912,31.208904,Shanghai,"121.564912,31.208904",CN,121410.0,92,93.0,13431292.0,"Shanghai New International Expo Center,China Clean Expo Shanghai",Shanghai,1,84,china clean expo shanghai sourced from predicthqcom expos Shanghai
ayjxcjhk9xps4krwse,zhengzhou international beauty expo,sourced from predicthqcom  the zhengzhou international beauty expo is an illustrious event that gathers beauty enthusiasts industry professionals and leading brands under one roof showcasing the latest trends technologies and products this expo serves as a prominent platform for networking business opportunities and discovering the cuttingedge advancements in the world of beauty,expos,Asia/Shanghai,113.728787,34.769851,Henan Sheng,"113.728787,34.769851",CN,120000.0,92,100.0,12492894.0,"Zhengzhou International Convention Centre,Zhengzhou International Beauty Expo",Shanghai,1,84,zhengzhou international beauty expo sourced from predicthqcom  the zhengzhou international beauty expo is an illustrious event that gathers beauty enthusiasts industry professionals and leading brands under one roof showcasing the latest trends technologies and products this expo serves as a prominent platform for networking business opportunities and discovering the cuttingedge advancements in the world of beauty expos Shanghai
akbdmpsxdw3gynhabd,moto2 2025  grand prix of the americas 2025  practice 2,sourced from predicthqcom,sports,America/Chicago,-97.63585109999995,30.1345808,Texas,"-97.63585109999997,30.1345808",US,120000.0,92,100.0,11134829.0,"Darryn Binder,Joe Roberts,Albert Arenas,Marcos Ramirez,Alex Escrig,Jorge Navarro,Ayumu Sasaki,Celestino Vietti,Tony Arbolino,Ivan Ortola,Izan Guevara,Diogo Moreira,Alonso Lopez,Jake Dixon,Mario Suryo Aji,Aron Canet,Manuel Gonzalez,Zonta van Den Goorbergh,Barry Baltus,Yuki Kunii,Filip Salac,Adrian Huertas,Senna Agius,David Alonso,Collin Veijer,Deniz Oncu,Daniel Holgado,Oscar Gutierrez,Circuit of the Americas",Houston,3,41,moto2 2025  grand prix of the americas 2025  practice 2 sourced from predicthqcom sports Houston
apj52z5yxwkbaqyctk,indian premier league 2025 ipl  gujarat titans vs chennai super kings,sourced from predicthqcom,sports,Asia/Kolkata,72.5975112,23.0917101,Gujarat,"72.5975112,23.0917101",IN,132000.0,92,100.0,3161998.0,Narendra Modi Stadium,Ahmedabad,3,2,indian premier league 2025 ipl  gujarat titans vs chennai super kings sourced from predicthqcom sports Ahmedabad
bcfesbxevs7jswmbrw,motorcycle grand prix of the americas,sourced from predicthqcom  the grand prix of the americas known as the red bull grand prix of the americas for sponsorship reasons is a grand prix motorcycle race and the third motogp round in the united states,sports,America/Chicago,-97.63585109999995,30.1345808,Texas,"-97.63585109999997,30.1345808",US,130000.0,92,100.0,71939765.0,"Circuit of the Americas,Motorcycle Grand Prix of The Americas",Houston,3,41,motorcycle grand prix of the americas sourced from predicthqcom  the grand prix of the americas known as the red bull grand prix of the americas for sponsorship reasons is a grand prix motorcycle race and the third motogp round in the united states sports Houston
blmb2vda6v3zwz8jm2,semana de la educacion,"sourced from predicthqcom  semana de la educacion education week is the meeting point that brings together students families teachers guidance counsellors heads of educational centers and education professionals in 5 days
it is the largest event for the educational world in spain offering a broad overview of this sector through its six halls and unique events aula  congreso red  interdidac postgrado y formación continua and schools day",expos,Europe/Madrid,-3.616551200000004,40.465582,Comunidad de Madrid,"-3.6165512000000035,40.465582",ES,118996.0,92,100.0,15850746.0,"IFEMA - Feria de Madrid,Semana Educacion",Madrid,1,54,"semana de la educacion sourced from predicthqcom  semana de la educacion education week is the meeting point that brings together students families teachers guidance counsellors heads of educational centers and education professionals in 5 days
it is the largest event for the educational world in spain offering a broad overview of this sector through its six halls and unique events aula  congreso red  interdidac postgrado y formación continua and schools day expos Madrid"
byuvcdx2mafzu56bcw,besame mucho,sourced from predicthqcom,festivals,America/Chicago,0.0,0.0,,"-97.63502611347535,30.13536749860773",US,120000.0,92,100.0,9546675.0,"La Banda el Recodo,Edgar Alejandro,Aldo Trujillo,Los 2 de la S,Jasiel Nuñez,Los Inquietos del Norte,La Fiera De Ojinaga,Banda Maguey,Banda Machos,Bobby Pulido,Los Huracanes del Norte,Bronco,Tito Double P,Mar,Conjunto Primavera,Banda Los Recoditos,Mónica Naranjo,Los Rieleros del Norte,Los Enanitos Verdes,Los Tigres del Norte,Los Socios del Ritmo,Ana Bárbara,Luis Ángel ""El Flaco"",Camila,La Maquinaria Norteña,Banda Zeta,Proyecto Uno,Molotov,Moenia,Los Yaguarú,Víctimas del Doctor Cerebro,Ramón Ayala,Pepe Aguilar,La Energía Norteña,Luis R Conriquez,Kabah,Jorge Medina,Hombres G,Edén Muñoz,Banda Sinaloense MS de Sergio Lizárraga,Magneto,Carin León,Cardenales de Nuevo León,Palomazo Norteño,Duelo,Elvis Crespo,Pesado,Peso Pluma,Circuit of the Americas",Unknown,2,95,besame mucho sourced from predicthqcom festivals Unknown
c86by5rudthl3dwoeu,oklahoma renaissance festival,sourced from predicthqcom,festivals,America/Chicago,0.0,0.0,Oklahoma,"-95.40565593596652,35.78482452557871",US,125000.0,92,100.0,7576575.0,,Oklahoma City,2,66,oklahoma renaissance festival sourced from predicthqcom festivals Oklahoma City
clwppchotwvvv3pbgh,zurich classic of new orleans,sourced from predicthqcom  the zurich classic of new orleans is a professional golf tournament on the pga tour played in avondale louisiana,sports,America/Chicago,-90.1892396,29.9023695,Louisiana,"-90.1892396,29.9023695",US,120000.0,92,100.0,12482538.0,"TPC Louisiana,Zurich Classic of New Orleans",New Orleans,3,64,zurich classic of new orleans sourced from predicthqcom  the zurich classic of new orleans is a professional golf tournament on the pga tour played in avondale louisiana sports New Orleans
cv4thtn7qqudun8pdr,indian premier league 2025  gujarat titans vs chennai super kings,sourced from predicthqcom,sports,Asia/Kolkata,72.5975112,23.0917101,Gujarat,"72.5975112,23.0917101",IN,132000.0,92,100.0,3161998.0,Narendra Modi Stadium,Ahmedabad,3,2,indian premier league 2025  gujarat titans vs chennai super kings sourced from predicthqcom sports Ahmedabad
dmgstwxsjz97hpv8nm,moto3 2025  grand prix of the americas 2025  practice 1,sourced from predicthqcom,sports,America/Chicago,-97.63585109999995,30.1345808,Texas,"-97.63585109999997,30.1345808",US,120000.0,92,100.0,11134829.0,"Scott Ogden,Riccardo Rossi,Adrian Fernandez,Adrian Cruces,Cormac Buchanan,Guido Pini,Ruche Moodley,Eddie O Shea,Jakob Rosenthaler,Angel Piqueras,David Munoz,Jacob Roulstone,Luca Lunetta,Matteo Bertelle,Joel Kelso,Alvaro Carpe,David Almansa,Stefano Nepa,Nicola Fabio Carraro,Valentin Perrone,Tatchakorn Buasri,Maximo Quiles,Jose Antonio Rueda,Ryusei Yamanaka,Taiyo Furusato,Dennis Foggia,Circuit of the Americas",Houston,3,41,moto3 2025  grand prix of the americas 2025  practice 1 sourced from predicthqcom sports Houston
ddkvua5kheykssj7wt,bloem show,sourced from predicthqcom,expos,Africa/Johannesburg,26.200556,-29.138884,Free State,"26.200556,-29.138884",ZA,125000.0,92,100.0,12383759.0,"Bloemfontein Showgrounds,Bloem Show",Johannesburg,1,45,bloem show sourced from predicthqcom expos Johannesburg
arakghzbync8jv8222,speed fest tcr world tour platino plusincluye concierto 90s pop tour,sourced from predicthqcom,sports,America/Mexico_City,-99.08951560000004,19.4040417,Ciudad de México,"-99.08951560000003,19.4040417",MX,110000.0,91,96.0,5568938.0,"90’s Pop Tour,Autódromo Hermanos Rodriguez",Mexico City,3,57,speed fest tcr world tour platino plusincluye concierto 90s pop tour sourced from predicthqcom sports Mexico City
bpdkm9d9tafk9uwzmg,british motorcycle grand prix,sourced from predicthqcom  the british motorcycle grand prix is a motorcycling event that is part of the grand prix motorcycle racing season covers the motogp moto2 and moto3 events,sports,Europe/London,-1.0222627,52.0692192,England,"-1.0222627,52.0692192",GB,118000.0,91,100.0,60220772.0,"Silverstone Circuit,British Motorcycle Grand Prix",London,3,49,british motorcycle grand prix sourced from predicthqcom  the british motorcycle grand prix is a motorcycling event that is part of the grand prix motorcycle racing season covers the motogp moto2 and moto3 events sports London
bm7vjshxgsjxq2cbzh,ocean city springfest,sourced from predicthqcom,festivals,America/New_York,0.0,0.0,Maryland,"-75.08858488670421,38.325477042798674",US,115000.0,91,100.0,9391524.0,Ocean City Season Festival,Baltimore,2,6,ocean city springfest sourced from predicthqcom festivals Baltimore
bmedu6s4k2syjpwy7f,intertextile shanghai home textiles  spring edition,sourced from predicthqcom,expos,Asia/Shanghai,121.306102,31.190706,Shang Hai Shi,"121.306102,31.190706",CN,109097.0,91,100.0,13915768.0,,Shanghai,1,84,intertextile shanghai home textiles  spring edition sourced from predicthqcom expos Shanghai
cz3zecuglvgupgczno,palm beach gardens medical center art fest by the sea,sourced from predicthqcom  artfest by the sea at juno beach is an annual event presented by palm beach gardens medical center this highly anticipated event offers a oneofakind artistic experience and has been a beloved tradition for over 30 years attendees can expect over 300 artists and craft artisans from across the united states displaying a wide array of art across all mediums including sculpture jewelry woodwork paintings wearable art and much more,festivals,America/New_York,0.0,0.0,Florida,"-80.05608092233344,26.88918569958231",US,110000.0,91,100.0,8498377.0,ArtFest by the Sea,Miami,2,58,palm beach gardens medical center art fest by the sea sourced from predicthqcom  artfest by the sea at juno beach is an annual event presented by palm beach gardens medical center this highly anticipated event offers a oneofakind artistic experience and has been a beloved tradition for over 30 years attendees can expect over 300 artists and craft artisans from across the united states displaying a wide array of art across all mediums including sculpture jewelry woodwork paintings wearable art and much more festivals Miami
d4cajwcphumzrfw6qp,balmoral show,sourced from predicthqcom,expos,Europe/London,-6.093137,54.487227,Northern Ireland,"-6.093137,54.487227",GB,110000.0,91,100.0,26952917.0,"Eikon Exhibition Centre,Balmoral Show",Belfast,1,10,balmoral show sourced from predicthqcom expos Belfast
ddfqsjvkjucfwtgmsu,royal agricultural show,sourced from predicthqcom  the royal show is a vibrant expo event that showcases the best of agriculture livestock and entertainment in south africa it brings together farmers exhibitors and visitors for a memorable experience filled with thrilling rides delicious food and captivating performances,expos,Africa/Johannesburg,30.373075,-29.593308,KwaZulu-Natal,"30.373075,-29.593308",ZA,117000.0,91,100.0,12458151.0,"Royal Show Grounds,Royal Show",Durban,1,33,royal agricultural show sourced from predicthqcom  the royal show is a vibrant expo event that showcases the best of agriculture livestock and entertainment in south africa it brings together farmers exhibitors and visitors for a memorable experience filled with thrilling rides delicious food and captivating performances expos Durban
eqbonuutxx62phipvj,the smarter e,sourced from predicthqcom  the smarter e is the worlds leading platform for the new energy world it brings together four exhibitions that focus on renewable energy decentralization and digitalization these are intersolar europe power2drive europe empower europe and electrical energy storage ees europe exhibition  it involves showcasing products technologies and services participants can explore booths see demonstrations and engage directly with companies and innovators,expos,Europe/Berlin,11.6948489,48.135525,Bayern,"11.6948489,48.135525",DE,115000.0,91,100.0,21187328.0,"Messe München,The Smarter E",Munich,1,62,the smarter e sourced from predicthqcom  the smarter e is the worlds leading platform for the new energy world it brings together four exhibitions that focus on renewable energy decentralization and digitalization these are intersolar europe power2drive europe empower europe and electrical energy storage ees europe exhibition  it involves showcasing products technologies and services participants can explore booths see demonstrations and engage directly with companies and innovators expos Munich
fczrrxzlmmu5ndnwvw,abono banamex plus tecate emblema 2025,sourced from predicthqcom,concerts,America/Mexico_City,-99.08951560000004,19.4040417,Ciudad de México,"-99.08951560000003,19.4040417",MX,110000.0,91,96.0,5063272.0,Autódromo Hermanos Rodriguez,Mexico City,0,57,abono banamex plus tecate emblema 2025 sourced from predicthqcom concerts Mexico City
fgsarrktncpnueebcr,equitana,sourced from predicthqcom  the equitana in essen is the worlds largest exhibition for equestrian sports for a better overview the days are divided by topics there are for example one day for ponies one for stallions for carriage horses or western horses,expos,Europe/Berlin,6.9929165,51.429161,Nordrhein-Westfalen,"6.9929165,51.429161",DE,112000.0,91,100.0,13548804.0,Equitana,Berlin,1,12,equitana sourced from predicthqcom  the equitana in essen is the worlds largest exhibition for equestrian sports for a better overview the days are divided by topics there are for example one day for ponies one for stallions for carriage horses or western horses expos Berlin
gaymyul6nd3kcchlwd,summerstage,sourced from predicthqcom  summerstage annually presents more than 80 free and benefit performances in central park and neighborhood parks throughout the five boroughs reaching thousands of fans with diverse artists and performances in genres that represent the cultural fabric of new york city ranging from jazz hiphop latin and global to indie and contemporary dance summerstage fills a vital niche in ny citys summer arts festival landscape,festivals,America/New_York,-73.9653551,40.7828647,New York,"-73.9653551,40.7828647",US,110000.0,91,88.0,9174241.0,"Central Park,SummerStage",New York,2,65,summerstage sourced from predicthqcom  summerstage annually presents more than 80 free and benefit performances in central park and neighborhood parks throughout the five boroughs reaching thousands of fans with diverse artists and performances in genres that represent the cultural fabric of new york city ranging from jazz hiphop latin and global to indie and contemporary dance summerstage fills a vital niche in ny citys summer arts festival landscape festivals New York
govekoqn4jxtn2lafv,itb berlin,sourced from predicthqcom  the itb berlin internationale tourismusbörse berlin is the worlds largest tourism trade fair the companies represented at the fair include hotels tourist boards tour operators system providers airlines and car rental companies,expos,Europe/Berlin,13.2692461,52.5007066,Berlin,"13.2692461,52.5007066",DE,113500.0,91,100.0,16926750.0,ITB Berlin,Berlin,1,12,itb berlin sourced from predicthqcom  the itb berlin internationale tourismusbörse berlin is the worlds largest tourism trade fair the companies represented at the fair include hotels tourist boards tour operators system providers airlines and car rental companies expos Berlin
haaphw3qwycucjucw8,northern california cherry blossom festival  1st weekend,sourced from predicthqcom  northern california cherry blossom festival is one of californias most prominent celebrations of asian traditions and the largest cherry blossom festival on the west coast these festivities celebrate japanese and japaneseamerican culture,festivals,America/Los_Angeles,0.0,0.0,California,"-122.43075705675986,37.78599936723352",US,110000.0,91,98.0,10144240.0,Northern California Cherry Blossom Festival,Los Angeles,2,50,northern california cherry blossom festival  1st weekend sourced from predicthqcom  northern california cherry blossom festival is one of californias most prominent celebrations of asian traditions and the largest cherry blossom festival on the west coast these festivities celebrate japanese and japaneseamerican culture festivals Los Angeles
3d7xxtmwjhjejzwses,first monday trade days  april,sourced from predicthqcom  canton first monday trade days is the largest outdoor vendor flea market in the world this popular monthly event is held thursday through sunday before the first monday of each month the event showcases 450 acres of a wide variety of vendors alongside festival foods live entertainment and more,festivals,America/Chicago,0.0,0.0,Texas,"-95.86525503041241,32.56230794423957",US,100000.0,90,100.0,7471012.0,First Monday Trade Days,Houston,2,41,first monday trade days  april sourced from predicthqcom  canton first monday trade days is the largest outdoor vendor flea market in the world this popular monthly event is held thursday through sunday before the first monday of each month the event showcases 450 acres of a wide variety of vendors alongside festival foods live entertainment and more festivals Houston
3d9zzlvuih99p67qrr,giro ditalia  	treviso  nova gorica,"sourced from predicthqcom  stage 14 of the giro ditalia
the giro ditalia is an annual multiplestage bicycle race primarily held in italy while also starting in or passing through other countries",sports,Europe/Rome,0.0,0.0,Veneto,"13.08881870344652,45.87447896981218",IT,100000.0,90,100.0,6709846.0,,Venice,3,98,"giro ditalia  	treviso  nova gorica sourced from predicthqcom  stage 14 of the giro ditalia
the giro ditalia is an annual multiplestage bicycle race primarily held in italy while also starting in or passing through other countries sports Venice"
3dchd8kt2mywyadlqi,norman music festival,sourced from predicthqcom  norman music festival is an electrifying annual event celebrating the vibrant and diverse music scene bringing together local and national talent for an unforgettable musical experience spanning across the lively stretch of main street this festival promises an unmissable fusion of genres showcasing the best in live music art food and community spirit,festivals,America/Chicago,0.0,0.0,Oklahoma,"-97.439143,35.2227126",US,100000.0,90,100.0,7439374.0,"Reaves Park,Norman Music Festival",Oklahoma City,2,66,norman music festival sourced from predicthqcom  norman music festival is an electrifying annual event celebrating the vibrant and diverse music scene bringing together local and national talent for an unforgettable musical experience spanning across the lively stretch of main street this festival promises an unmissable fusion of genres showcasing the best in live music art food and community spirit festivals Oklahoma City
3ysbckac5a9vgtcwaw,architecture  construction materials,sourced from predicthqcom  architecture  construction materials is a comprehensive expo event that brings together industry professionals manufacturers and suppliers showcasing the latest innovations in materials technology and design solutions for the architecture and construction sectors fostering valuable networking and business opportunities,expos,Asia/Tokyo,139.7966727,35.6319398,Tokyo,"139.7966727,35.6319398",JP,100000.0,90,98.0,13335795.0,Architecture + Construction Materials,Tokyo,1,91,architecture  construction materials sourced from predicthqcom  architecture  construction materials is a comprehensive expo event that brings together industry professionals manufacturers and suppliers showcasing the latest innovations in materials technology and design solutions for the architecture and construction sectors fostering valuable networking and business opportunities expos Tokyo
3cqt5xxbrpcqhwzkhg,collingwood magpies vs carlton blues,sourced from predicthqcom,sports,Australia/Melbourne,144.9834493,-37.8199669,Victoria,"144.9834493,-37.8199669",AU,100024.0,90,100.0,7822197.0,"Carlton Blues,Collingwood Magpies,Melbourne Cricket Ground",Melbourne,3,56,collingwood magpies vs carlton blues sourced from predicthqcom sports Melbourne
3knrq5epmoxcuxdefk,boston marathon expo,sourced from predicthqcom  the boston marathon expo is an exciting event that gathers runners and fitness enthusiasts from around the world with a wide range of vendors informational booths and interactive displays attendees can immerse themselves in the vibrant running culture while preparing for the iconic boston marathon,expos,America/New_York,-71.0841766,42.3474891,Massachusetts,"-71.0841766,42.3474891",US,100000.0,90,96.0,21776733.0,"John B. Hynes Veterans Memorial Convention Center,Boston Marathon Expo",Boston,1,18,boston marathon expo sourced from predicthqcom  the boston marathon expo is an exciting event that gathers runners and fitness enthusiasts from around the world with a wide range of vendors informational booths and interactive displays attendees can immerse themselves in the vibrant running culture while preparing for the iconic boston marathon expos Boston
3o5tntenzx9hakmhgd,bbc radio 1s big weekend,sourced from predicthqcom  bbc radio 1s big weekend is a music festival run by bbc radio 1 it is held once a year in a different location within the united kingdom each time it was the biggest freeticketed music event in europe until a fee for tickets was introduced in 2018 and always includes a host of new artists,festivals,Europe/London,-2.9349373,53.3833732,England,"-2.9349373,53.3833732",GB,100000.0,90,100.0,8567265.0,"Sefton Park,BBC Radio 1's Big Weekend",London,2,49,bbc radio 1s big weekend sourced from predicthqcom  bbc radio 1s big weekend is a music festival run by bbc radio 1 it is held once a year in a different location within the united kingdom each time it was the biggest freeticketed music event in europe until a fee for tickets was introduced in 2018 and always includes a host of new artists festivals London
3rhet7nxwrgqsteogd,livermore downtown street fest,sourced from predicthqcom,festivals,America/Los_Angeles,0.0,0.0,California,"-121.76872515300735,37.68196592013559",US,100000.0,90,100.0,8607955.0,,Los Angeles,2,50,livermore downtown street fest sourced from predicthqcom festivals Los Angeles
3xnm7e8zgpz5pts3vj,coca cola 600  nascar cup series,sourced from predicthqcom  the nascar cup series  cocacola 600 is one of the most iconic and longest races in the nascar calendar held annually at the charlotte motor speedway in concord north carolina spanning 600 miles the race tests drivers endurance and skill making it a fanfavorite and a true test of racing prowess traditionally run on memorial day weekend the event also serves as a tribute to the us armed forces adding a patriotic element to the highspeed competition,sports,America/New_York,-80.686551,35.351547,North Carolina,"-80.686551,35.351547",US,95000.0,90,100.0,8450401.0,"Charlotte Motor Speedway,Coca-Cola 600",Charlotte,3,25,coca cola 600  nascar cup series sourced from predicthqcom  the nascar cup series  cocacola 600 is one of the most iconic and longest races in the nascar calendar held annually at the charlotte motor speedway in concord north carolina spanning 600 miles the race tests drivers endurance and skill making it a fanfavorite and a true test of racing prowess traditionally run on memorial day weekend the event also serves as a tribute to the us armed forces adding a patriotic element to the highspeed competition sports Charlotte
452sltxdgy5ece34ze,foire internationale de rennes,sourced from predicthqcom  foire internationale de rennes features agriculture sport furniture housing garden automobile caravanning demonstrators beauty  wellbeing wine  gastronomy 400 exhibitors are gathered at the rennes fair take advantage of 9 days of celebration to do your shopping and discover the different activities with family or friends,expos,Europe/Paris,-1.731611,48.0574196,Bretagne,"-1.731611,48.0574196",FR,100000.0,90,100.0,18622432.0,"Parc Expo Rennes Aéroport,Foire Internationale Rennes",Paris,1,69,foire internationale de rennes sourced from predicthqcom  foire internationale de rennes features agriculture sport furniture housing garden automobile caravanning demonstrators beauty  wellbeing wine  gastronomy 400 exhibitors are gathered at the rennes fair take advantage of 9 days of celebration to do your shopping and discover the different activities with family or friends expos Paris
